{"type":"FeatureCollection","features":[{"type":"Feature","id":0,"geometry":{"type":"MultiLineString","coordinates":[[[105.23924249279327,-5.5648391525186298],[105.23929597963951,-5.5647778565370345],[105.23934948582922,-5.5647644310739679],[105.23945267904145,-5.5647452409691596],[105.23955396344184,-5.5647317960856526],[105.2396132061067,-5.5647260275536041],[105.23968009250956,-5.5647183410878256],[105.23975433102555,-5.5647054075705569],[105.23984966522312,-5.5646196588531893],[105.23985873280304,-5.5645942837846292],[105.23987114602039,-5.56457177958697],[105.23988499859598,-5.5645641146675757],[105.23989837591091,-5.5645626731101174],[105.23991844256216,-5.5645621862415169],[105.23993660060734,-5.5645679233176679],[105.23995188613986,-5.5645593004032321],[105.23997433626784,-5.5645454088148085],[105.23999869480576,-5.5645248145747814],[105.24001827707491,-5.5645080519201429],[105.2400249613645,-5.5644965602728007],[105.24003976814146,-5.5644855440245351],[105.2400602978193,-5.5644486753608362],[105.24007175507381,-5.5644252141377706],[105.24009038099723,-5.5644065370490807],[105.24011474962128,-5.5644108354754849],[105.24012669844029,-5.5644213621268364],[105.24013871365617,-5.5644367833852471],[105.24014629778998,-5.5644467255265226],[105.24016493419799,-5.5644538985167173],[105.24018356866441,-5.5644562844541952],[105.24020219963495,-5.5644500536974988],[105.24022369690806,-5.5644428643620358],[105.24026430409731,-5.564432316303737],[105.24027959486705,-5.5644366184215528],[105.24030587462084,-5.5644409160614146],[105.24032594262729,-5.5644437801154822],[105.24037085704299,-5.5644509423900672],[105.24039331415401,-5.5644542841734506],[105.24041863717906,-5.5644557099665235],[105.2404310548435,-5.5644442159775167],[105.24043391356406,-5.564424587895644],[105.24043629255846,-5.5644001729565957],[105.24044728115285,-5.564399211065961],[105.24045970562054,-5.5644044717583938],[105.24046305475997,-5.5644159593194331],[105.24047404179919,-5.5644111677867159],[105.24048359393674,-5.564402547196778],[105.24048741521943,-5.564400152112114],[105.2405012673936,-5.5643915297683861],[105.2405103450547,-5.5643910473611413],[105.24052420422947,-5.5643996584039428],[105.24053042239535,-5.5644168892577568],[105.2405299494759,-5.5644288570825324],[105.24053234052468,-5.5644341218653608],[105.24055576078541,-5.5644561327553674],[105.24058252318696,-5.5644723978176671],[105.24058874446803,-5.5644972879537136],[105.24060786216643,-5.5645130774281597],[105.24063844604956,-5.5645274261074746],[105.24065708460586,-5.5645398648387641],[105.24068145440629,-5.5645470354726285],[105.24071060241647,-5.5645551615655791],[105.24072636961171,-5.5645561125401741],[105.24076745496939,-5.5645465216627485],[105.24077652873865,-5.5645364651475688],[105.24080184767848,-5.5645278381152252],[105.24081666534562,-5.5645436293383455],[105.24083578110384,-5.5645546317531398],[105.24086683362225,-5.5645464810817202],[105.2408888094505,-5.5645412063478261],[105.24091747695354,-5.5645426307531238],[105.24093897831159,-5.5645454942006154],[105.24097194546289,-5.5645459594360318],[105.24101208090292,-5.5645502513822862],[105.24104981866236,-5.5645330025692488],[105.24106653401378,-5.5645157623476393],[105.24109998557367,-5.5645325033565882],[105.24111289329016,-5.5645511675843409],[105.24114299628457,-5.5645578571494525],[105.24116736160556,-5.5645540175439123],[105.24118789979485,-5.5645382118714792],[105.24120270498958,-5.564523365953562],[105.24121942150646,-5.5645089979588533],[105.24122849819287,-5.5645061220146772],[105.24124665663743,-5.5645128164603079],[105.24125287209438,-5.5645233454330878],[105.24127246349542,-5.5645290818812327],[105.24129730796182,-5.5645285930111186],[105.24131546172475,-5.5645237985305585],[105.24134842633731,-5.564518040577866],[105.24140241862455,-5.5645251990579254],[105.24141053564716,-5.56451227069374],[105.2414186534503,-5.5645012571500843],[105.2414329816371,-5.5644883262429516],[105.2414497049802,-5.5644907129225203],[105.24146165362828,-5.5645007608405308],[105.24147694460248,-5.564505541632002],[105.24148792987666,-5.5644964417342635],[105.2414955722395,-5.5644911728472835],[105.2415208966338,-5.5644959495288049],[105.24152853743379,-5.5644868510001402],[105.24153139494626,-5.564464350683636],[105.24154668299013,-5.5644619508959181],[105.24156196732287,-5.5644504557099594],[105.24156435271647,-5.5644418380386469],[105.24159588651531,-5.5644423038265245],[105.24159922629997,-5.5644308135326241],[105.24162360196675,-5.5644523452818362],[105.24164080211438,-5.5644523382345596],[105.24166755496856,-5.5644451466937994],[105.24168379486207,-5.5644336511132337],[105.24169526319002,-5.5644374760551614],[105.24170768532304,-5.5644369922587771],[105.24172440514752,-5.5644307622378619],[105.24177692654911,-5.5643460098823994],[105.24179699455738,-5.564348873886388],[105.24181897603904,-5.5643574815678107],[105.24186101614362,-5.5643459754028868],[105.24188872631362,-5.5643430918069612],[105.24190879745157,-5.5643536150894306],[105.24193460001561,-5.5643593489677414],[105.241958486562,-5.5643531160004045],[105.24197066735616,-5.5643466484823421],[105.241979980726,-5.5643383869959848],[105.2420097199996,-5.5643319122725643],[105.24202154319039,-5.5643272400448041],[105.24202583574106,-5.5643089278083835],[105.2420161566979,-5.5642992379995917],[105.24198175582552,-5.5642978159998506],[105.24195774802655,-5.5642996209944044],[105.24195774069022,-5.5642816695514625],[105.2419570210829,-5.5642744892682572],[105.24195665658425,-5.5642594102030785],[105.24195450025724,-5.5642439728442241],[105.2419634489799,-5.5642202732641408],[105.24198064207695,-5.5642030328219789],[105.24198923510318,-5.5641857959079744],[105.2419974703796,-5.5641699952565205],[105.24200642452939,-5.5641595797437162],[105.24203293920823,-5.5641541834293662],[105.24206948715386,-5.5641484239669694],[105.24208597326196,-5.564154879720661],[105.24208992391544,-5.5641767788629863],[105.24208563327613,-5.5641997584748992],[105.24207847829535,-5.5642284837252305],[105.24206344123684,-5.5642604434708574],[105.24207168766867,-5.5642719290114542],[105.24206381513312,-5.5642985003826766],[105.24207492429241,-5.5643002909674237],[105.24207815842095,-5.5643225494327453],[105.24209428502337,-5.5643261331022131],[105.24211148487313,-5.5643254079836311],[105.2421272497624,-5.5643207341356629],[105.24213871373456,-5.5643139078795798],[105.24216880458602,-5.5642909176738158],[105.2421892193272,-5.5642654182379374],[105.24220103311501,-5.5642377681598987],[105.24220568458338,-5.5642208918907841],[105.24221069394679,-5.5642029383878366],[105.24222502460555,-5.5641961109528779],[105.24223863726962,-5.5641860525523725],[105.24225261106045,-5.5641828155524422],[105.24228521392735,-5.5641688000321778],[105.24229202069921,-5.5641648479177661],[105.24231638535798,-5.5641594524741436],[105.24234863311887,-5.5641533357322714],[105.24236475604374,-5.5641479436732766],[105.24238517620989,-5.5641357282985382],[105.2424098953806,-5.5641209979536939],[105.24241705254917,-5.5640976581327664],[105.24242027169464,-5.5640832956531767],[105.24243316944438,-5.564077545889063],[105.24244355663558,-5.564066411723104],[105.24244462679229,-5.5640545633291936],[105.24244605425633,-5.5640402015859536],[105.2424596688241,-5.5640348105555972],[105.2424718504883,-5.564030497200747],[105.24247973035415,-5.5640218772671801],[105.24249083877413,-5.5640218727001525],[105.24249836280353,-5.5640193564043443],[105.24249943325322,-5.5640082260679833],[105.2424983550099,-5.5640003278753056],[105.2425055202616,-5.5639967346401704],[105.24252737744058,-5.5639934943925482],[105.24253884301947,-5.5639906174463931],[105.24255317925838,-5.5639974331000417],[105.24256106235856,-5.5639967118003142],[105.24258148089723,-5.5639805471016643],[105.24258291041707,-5.5639712117621229],[105.24258182981902,-5.5639575691080267],[105.24258684314088,-5.5639493093812575],[105.24259257416452,-5.5639435625615192],[105.24259400574368,-5.5639392536257333],[105.24259185249082,-5.5639313558754679],[105.24259758248451,-5.5639230958537951],[105.24260617916644,-5.5639148346528486],[105.24260796363825,-5.5638972415023318],[105.24261440971497,-5.5638875450702585],[105.24261655266957,-5.5638703108012919],[105.24263625865007,-5.5638641992034081],[105.24263626247546,-5.5638735339533696],[105.24263627409869,-5.5639018972323697],[105.24264022226919,-5.5639176928800111],[105.2426617237569,-5.5639209152941476],[105.24267892271047,-5.5639180359865463],[105.24268536348848,-5.5638954145153434],[105.24268248855924,-5.5638753100795384],[105.24268606765196,-5.5638648967686208],[105.24271150259256,-5.5638480119438896],[105.24272045701923,-5.5638383144784598],[105.24272977228355,-5.563834720355942],[105.24273837264201,-5.5638354348743633],[105.2427401659412,-5.5638393834542512],[105.24273407864467,-5.5638501568266179],[105.24273085641704,-5.5638569797018818],[105.24273695018996,-5.5638620035987287],[105.24274626869294,-5.5638663081103346],[105.24276346852776,-5.5638655829733921],[105.24276955906237,-5.5638627082353764],[105.24277851392981,-5.5638540878556455],[105.24278424230067,-5.5638418785150066],[105.24279176294021,-5.5638311045521505],[105.24279928829071,-5.5638318195120178],[105.24280466185843,-5.5638282270110153],[105.24281075165641,-5.5638235571282735],[105.24281218323358,-5.5638192481920328],[105.24281504462118,-5.5638063219736296],[105.24281432397379,-5.5637966284898539],[105.2428078683314,-5.5637829880491836],[105.24280786523946,-5.5637754484434936],[105.24282040640952,-5.5637740071648523],[105.24284047322368,-5.5637739989032866],[105.24285480533695,-5.5637707617422052],[105.24287307620017,-5.5637603423807036],[105.2428888351767,-5.5637413073595781],[105.2429042383198,-5.5637283759758134],[105.24292537248056,-5.5637096977690135],[105.2429321770332,-5.5637003602149093],[105.24293539763744,-5.5636895880214752],[105.24294327852306,-5.5636834812841016],[105.24295653474212,-5.56367809039034],[105.24296943144611,-5.5636698274132073],[105.24298662655985,-5.5636576133470612],[105.24300059753409,-5.5636475547821647],[105.24300812170367,-5.5636453975088784],[105.24301708319513,-5.5636529334236116],[105.24302962627746,-5.5636561595156309],[105.24304396015515,-5.563657230696208],[105.24306115998303,-5.563656505550739],[105.24306940067686,-5.5636539889525238],[105.24308409259567,-5.5636543419266786],[105.24309878392489,-5.5636532587851093],[105.2431084564879,-5.5636471513072934],[105.24311741473747,-5.5636467885859702],[105.24312852211796,-5.5636442708053551],[105.24313281831547,-5.5636349342831295],[105.24314177243684,-5.5636245187541249],[105.24315252059614,-5.5636198469477449],[105.24316004211096,-5.5636112271534444],[105.2431686347993,-5.5635932721662584],[105.2431657661956,-5.5635886059732229],[105.243169701255,-5.5635724480505928],[105.24316861990735,-5.5635570102537599],[105.24316789999205,-5.563549111914881],[105.24316789763304,-5.5635433674535193],[105.24316717757011,-5.563535110085752],[105.24316359200037,-5.5635297261304686],[105.24316394532326,-5.5635175190022323],[105.24316787994002,-5.5635002839931076],[105.24316213904797,-5.5634819758859635],[105.24316249060161,-5.5634654604117486],[105.24317646333748,-5.5634597101890222],[105.2432019034074,-5.5634553913536138],[105.24321157272186,-5.5634413852397415],[105.24322159889692,-5.5634237886896472],[105.24323090884229,-5.5634072695214059],[105.24325168715291,-5.5633946949415645],[105.24327210683163,-5.5633814024511707],[105.24328894211982,-5.5633655982361461],[105.24331365489138,-5.563335429615563],[105.24332726677903,-5.5633235760470257],[105.2433516259328,-5.5633048964955378],[105.24337061226356,-5.5632916045931893],[105.24337634120729,-5.5632808313627038],[105.24338206513352,-5.5632578511517181],[105.24338420865439,-5.5632420529958608],[105.24338527746363,-5.5632269733412727],[105.24338599088833,-5.5632190744111654],[105.24338526787182,-5.5632036364669943],[105.24339028132391,-5.5631957357627471],[105.24339063744594,-5.5631903501823672],[105.24341177880342,-5.5631892643721699],[105.24342360963414,-5.5632032616168772],[105.24342720022207,-5.5632208525510123],[105.24343185991353,-5.5632240818881655],[105.24345407436016,-5.5632183282577898],[105.2434641068715,-5.5632161699438143],[105.24347665024175,-5.5632201140842881],[105.2434823822831,-5.5632168804582989],[105.24349814462101,-5.5632061030851219],[105.24352035227434,-5.5631838341261641],[105.24353503871805,-5.5631709030228649],[105.24354828797948,-5.563148637761401],[105.24355939195198,-5.5631378623099295],[105.24356081658181,-5.5631166790171278],[105.24356152631236,-5.563099804366118],[105.24356689351879,-5.5630807736186512],[105.24359161660266,-5.5630757370054766],[105.24361060277278,-5.5630620860671343],[105.24361848157548,-5.5630509529176493],[105.24363066158537,-5.5630426902227441],[105.24364499736896,-5.563048428764148],[105.24364321292967,-5.563066021916768],[105.24364214471802,-5.5630825376869097],[105.24364807566195,-5.5630966734053686],[105.24365326390324,-5.5631087422031555],[105.2436607932338,-5.5631191509309019],[105.2436733413308,-5.5631345839898358],[105.24368374059696,-5.5631528901673164],[105.24369736015575,-5.563159706089607],[105.24370739591592,-5.5631654464056624],[105.24371778971636,-5.5631704685159207],[105.24373463267079,-5.5631733337878586],[105.24375147532959,-5.563175481001565],[105.24376759836161,-5.5631704479344535],[105.24376903111278,-5.5631690112269894],[105.24378443436922,-5.5631564388503421],[105.24379445800963,-5.5631327388011869],[105.2438062756919,-5.5631147824727236],[105.24381629755686,-5.5630867740773624],[105.24381234921401,-5.5630706194095296],[105.24380696767741,-5.56305482436278],[105.24380683945816,-5.5630348648565473],[105.24381125573018,-5.5630257412506694],[105.24382379185482,-5.563012092971519],[105.24384731274938,-5.5629882796339984],[105.24385925529361,-5.5629834876453401],[105.24387717280604,-5.5629852753825162],[105.2438759926473,-5.5630199819959785],[105.24387899183739,-5.5630516949742059],[105.24388855706206,-5.5630750278969572],[105.24390588745626,-5.5631013495163302],[105.24394052655742,-5.5631013351926981],[105.24398710869718,-5.5630977256386132],[105.24403249589091,-5.5630929198122203],[105.24408206810466,-5.5630988831171635],[105.24411132033231,-5.5630701487023089],[105.24414773655309,-5.5630348291249447],[105.2441620588703,-5.563007896031138],[105.24417160017225,-5.5629731859571052],[105.24419606002562,-5.5629091490156952],[105.24419605089599,-5.5628870089053066],[105.24423845144986,-5.5628810075372712],[105.24429099249602,-5.5628450828939435],[105.24440981569563,-5.5627851955301821],[105.24442057884494,-5.5628169052878889],[105.24442955352924,-5.5628563947453813],[105.24445404891878,-5.5628785247089354],[105.24450003553972,-5.5628791040321062],[105.24450898774774,-5.5628641407853934],[105.24456154211924,-5.5628605287114397],[105.24463331756368,-5.5628336914622309],[105.24464524180519,-5.5627846192386983],[105.2446273003215,-5.5627247885342399],[105.24464520225411,-5.5626888782235824],[105.24464757335795,-5.5626457937760847],[105.2446332216573,-5.5626015195003333],[105.24463797573088,-5.5625440729097022],[105.24466066238148,-5.562524915295171],[105.24467855837338,-5.5624746438313082],[105.24481590879452,-5.5624470613037715],[105.24500818015088,-5.5623620113207721],[105.24507268640332,-5.5623763456826509],[105.2451216623287,-5.5623847026758995],[105.24514913468374,-5.5623846912609451],[105.24516586639947,-5.5624074228023801],[105.24519693994324,-5.5624504933513776],[105.24525189853557,-5.5624839798668404],[105.24533670996721,-5.5624971089945348],[105.2453570052125,-5.5624719685346236],[105.2453773034311,-5.5624540086497518],[105.24544419016974,-5.5624479970118728],[105.24545015944528,-5.5624408139513548],[105.24547881137113,-5.5624048991451787],[105.24548357627458,-5.5623737813288585],[105.24548715119221,-5.5623534348730459],[105.24550864881382,-5.5623474421132642],[105.24555642731411,-5.5623486189916207],[105.24557552759865,-5.5623222822591742],[105.24559343690544,-5.5623043233616727],[105.24561971232407,-5.5622983286090744],[105.24564361671133,-5.5623354183040306],[105.24565796351504,-5.5623677249263892],[105.2456806660108,-5.5623868636777729],[105.24568664124035,-5.5623940417663675],[105.24569739774626,-5.5624095952034054],[105.24574397832509,-5.562402395225547],[105.24575233897986,-5.5624011949801115],[105.24576070609061,-5.5624155526482468],[105.24577743782993,-5.562438284171435],[105.24578938779615,-5.5624514435837114],[105.24579894538516,-5.5624562266529551],[105.24583956961146,-5.5624873255586067],[105.24586466698025,-5.5625208244579198],[105.24587781140036,-5.5625339833705425],[105.24593394808642,-5.5625279761572415],[105.24596977613203,-5.5625147968297597],[105.24599724849116,-5.5625147853749013],[105.24602353435444,-5.5625339226180586],[105.24604384597814,-5.5625482753005713],[105.24609044496219,-5.5625853555100662],[105.24616092798976,-5.5626104581223217],[105.24619676996468,-5.5626307881325374],[105.24622186238383,-5.5626523193898265],[105.24625293054163,-5.562682225490903],[105.24629901623371,-5.5627215543648276],[105.24631626928175,-5.5627611853894336],[105.24634614001218,-5.5627839114085305],[105.2463855653566,-5.5628042399100082],[105.24640706796339,-5.5628102147425693],[105.24644839946734,-5.5628181352731758],[105.24650143905353,-5.5628329138082222],[105.24653608610396,-5.5628520475331129],[105.2466017938678,-5.562883135899483],[105.24664241666875,-5.5629106444587251],[105.24665317370756,-5.5629273946390754],[105.2466770826714,-5.5629752551498655],[105.24668068247666,-5.5630147468137352],[105.24668658025581,-5.5630534094268569],[105.24669265341345,-5.5630781702307672],[105.24670580035706,-5.5630973129356676],[105.24673926693998,-5.5631499564965452],[105.2467583981138,-5.5631978190014593],[105.24678349057717,-5.5632193502324867],[105.24680021340049,-5.5632205399987242],[105.24681216340485,-5.56323369938832],[105.2468193410898,-5.5632600251639701],[105.24683608486646,-5.5633114789527554],[105.24688148052633,-5.5633270178694261],[105.24690060523062,-5.5633593224566766],[105.24692211584704,-5.5633844454685573],[105.24694600538754,-5.5633856322301654],[105.24696393065375,-5.5634059696906775],[105.24700813586554,-5.56343108319669],[105.24702486268899,-5.5634418470558558],[105.24702129331166,-5.5634753579049629],[105.24704519983237,-5.5635172345853903],[105.24708104438849,-5.5635435483497417],[105.247096574267,-5.5635483288947398],[105.24712764301546,-5.5635794317071827],[105.24715631786677,-5.5635985678945303],[105.24720290750895,-5.5636129095220213],[105.24721127567165,-5.5636296606916744],[105.24724353788361,-5.563658369472023],[105.24729249844415,-5.5636296266438308],[105.24731041423229,-5.5636272256069219],[105.24733191887697,-5.5636379874533759],[105.24732618964759,-5.5636732929550021],[105.24732357970402,-5.5636906485054283],[105.24734747375646,-5.5637026061118604],[105.24737016985711,-5.5637061868815181],[105.24739890800817,-5.5637039066590432],[105.24740718688884,-5.5636798425781535],[105.24741554055612,-5.5636618876348507],[105.24744659732357,-5.5636642681319017],[105.24747048387428,-5.5636582742973815],[105.24748602226231,-5.5636833997925805],[105.24748842017152,-5.5637049405132757],[105.24749678684282,-5.5637181013911459],[105.24749992593746,-5.5637416274686871],[105.24749680184999,-5.5637540042629325],[105.24749800480703,-5.5637743487222906],[105.24752070891583,-5.5637970776841144],[105.2475613243156,-5.5638066347388531],[105.24757087993856,-5.5638066307279814],[105.24760312816397,-5.563801830140676],[105.24764542248778,-5.5638003227061859],[105.24767120046255,-5.5637742760207516],[105.24770106628807,-5.5637850343421746],[105.24771779263301,-5.5637946014180102],[105.24775840953754,-5.5638077487462283],[105.2477870713974,-5.5637957690800022],[105.24779542856038,-5.5637861914684663],[105.24781573826505,-5.5637957570360186],[105.24783605348068,-5.5638184869888505],[105.24785277582083,-5.5638184799619808],[105.24787308502653,-5.5638268487651885],[105.24788384612521,-5.5638531730189129],[105.2479101225864,-5.5638495716872285],[105.24794237381741,-5.5638519516554652],[105.24794955055819,-5.5638758838896933],[105.24794000144954,-5.5638914458172053],[105.24793284124621,-5.563907006740294],[105.24793165882051,-5.5639357295386844],[105.24792714023164,-5.563959096918154],[105.24792928745416,-5.5639776172247934],[105.24793885009564,-5.5639943678806958],[105.24793885610967,-5.5640087290287852],[105.24793767368413,-5.5640374518270619],[105.24794484341101,-5.5640446293881496],[105.24796754504092,-5.5640613745196674],[105.24797949859692,-5.5640829112197139],[105.24802848221515,-5.5641092193979489],[105.24805833502694,-5.5640888618797248],[105.24808043499451,-5.5641564070423897],[105.24809828263125,-5.5641903984936789],[105.24812646852348,-5.5642073127094704],[105.248151564088,-5.564236024451418],[105.24816232019089,-5.5642503810758512],[105.24817546971644,-5.5642755075555215],[105.248169509989,-5.564305429126307],[105.24815040976341,-5.5643317659386753],[105.24814563897041,-5.5643485226213443],[105.24814206513918,-5.5643712626128945],[105.248134909952,-5.5643987911612953],[105.24813492299347,-5.5644299069812746],[105.24814329169618,-5.5644478548977645],[105.24813613199387,-5.5644646125854251],[105.24813017025662,-5.564489747106677],[105.24814810161666,-5.5645244456746923],[105.24817797300682,-5.564548368354906],[105.24820425802596,-5.5645651119678519],[105.24822576924345,-5.5645914316889389],[105.24822697574098,-5.5646201534811439],[105.24821863463109,-5.5646680274919618],[105.2482191336552,-5.5647186902276644],[105.24821795375249,-5.5647533968366929],[105.24823587910436,-5.5647737342537766],[105.24826933287153,-5.5647952618954264],[105.24831114832699,-5.5648179827767876],[105.24837207255302,-5.5648347117946173],[105.24841985426298,-5.5648430690052351],[105.2484437493876,-5.5648574200883445],[105.24847123691973,-5.5648933113811268],[105.24854650165213,-5.5649267890121905],[105.24856561544516,-5.5649327647680593],[105.24859309142914,-5.5649411305229819],[105.24863012657295,-5.5649578695834521],[105.24870657974316,-5.5649769855429554],[105.24875197054644,-5.5649805566846453],[105.24880571800873,-5.5649733534349934],[105.2488331824274,-5.564954193647452],[105.24886542567032,-5.5649374253669066],[105.24889289511697,-5.5649302331988793],[105.24892036657565,-5.5649278280785097],[105.24894306071735,-5.564926621736106],[105.24896814527898,-5.5649290046707733],[105.24896577297858,-5.5649684988322861],[105.24897470585648,-5.5649978471497548],[105.24901837754192,-5.5650001821194337],[105.24904939238633,-5.5649864149586961],[105.24908880940478,-5.5649863983099408],[105.24913419668411,-5.564981592086724],[105.24916046562919,-5.5649600392646903],[105.24918674162495,-5.5649552411122158],[105.24920824181555,-5.5649552320265343],[105.24922735359991,-5.5649564207118374],[105.2492619948116,-5.5649611931196432],[105.2492882803819,-5.5649791334440124],[105.24930381434609,-5.5649934880256069],[105.2493181508313,-5.5650006625385799],[105.24936367128436,-5.5650194404157105],[105.24940416571718,-5.5650341355121213],[105.24941372690512,-5.565047295854356],[105.24942329212769,-5.5650700302936684],[105.24946511167838,-5.5651023251872971],[105.2494830355692,-5.5651190722774118],[105.2494842426342,-5.5651489908258327],[105.24947350817109,-5.5651860950006835],[105.2494794940668,-5.5652184050520077],[105.24952130909094,-5.5652399290815993],[105.24956310999062,-5.56522794376815],[105.24957266109379,-5.5652171688645922],[105.24962760756199,-5.5652207358933197],[105.24964790825874,-5.5652087596754427],[105.24966461397872,-5.5651692594449855],[105.24967774238803,-5.5651441218770401],[105.24968251162812,-5.5651237748976428],[105.24969683550057,-5.5651010303478756],[105.24973026914114,-5.5650746874179617],[105.24973862022983,-5.5650507486342917],[105.24978040596187,-5.5650028604422346],[105.2498126486733,-5.5649848953488004],[105.24984608331215,-5.5649609459370026],[105.24985920867857,-5.5649286277925967],[105.24986756329616,-5.5649130663422284],[105.24990863119547,-5.5648329876183311],[105.24993637692194,-5.5648073678549395],[105.2499677967744,-5.5647785818862303],[105.24996066912752,-5.5647670218790495],[105.24996066205313,-5.564750267209206],[105.24995109833213,-5.5647311230655419],[105.24992600670345,-5.5647119855025267],[105.24993196937595,-5.564689244491035],[105.24995704331832,-5.5646664953792992],[105.24997614751373,-5.5646497326087569],[105.2500048118909,-5.5646437366460191],[105.25001915241876,-5.5646604852390169],[105.25003110757689,-5.5646856121795167],[105.25006319121468,-5.5647009006466419],[105.25008606208536,-5.5647083273614726],[105.25012189167393,-5.5646987380673067],[105.25012187094296,-5.5646496708205859],[105.25012664016424,-5.5646293238382896],[105.25015172016452,-5.5646209358640135],[105.25018038605555,-5.564618530179132],[105.25020189786545,-5.5646460465861765],[105.25021742728904,-5.5646496302842934],[105.25024012495629,-5.5646568012271587],[105.25023177136381,-5.5646747562066139],[105.2502067024904,-5.5647094729506534],[105.25022701833296,-5.5647333995769372],[105.25026763838639,-5.5647537272990348],[105.25032258329458,-5.5647537039785107],[105.25035840174678,-5.5647177859040085],[105.2503751058876,-5.5646746953693196],[105.25040494699851,-5.5646268122069955],[105.25041688394754,-5.5646088557036819],[105.25046346411801,-5.564600458586483],[105.25047419901563,-5.564564551158071],[105.25048136168965,-5.5645549740175397],[105.25047247897231,-5.5644397894187136],[105.2504748466144,-5.5643895243962902],[105.25040552273958,-5.5642818452265033],[105.25038638313924,-5.5642148346626641],[105.25045083806174,-5.564107098686236],[105.25062040887599,-5.5640088921443294],[105.25067294859366,-5.5639705734225231],[105.25077755726545,-5.5638480130149333],[105.25085938379198,-5.5638609208436947],[105.25103125097326,-5.5638914347190394],[105.25110292016632,-5.5638961912601417],[105.25121278036602,-5.5638267322668185],[105.25127663786452,-5.563731416086398],[105.25130349069752,-5.5636663274818261],[105.25139136630065,-5.5636203028643649],[105.25146297534951,-5.5635464146089362],[105.25152798874467,-5.5635274073685537],[105.25152795214234,-5.5634412405023568],[105.25149448106185,-5.5633790231371449],[105.25146340498998,-5.5633311658957041],[105.25150400109356,-5.5632952457200417],[105.25155415992083,-5.5632760761354803],[105.25165449384053,-5.5632760333386955],[105.25169424464974,-5.5633088511568189],[105.25188617363409,-5.5631730129006201],[105.25192198578611,-5.5631227335937865],[105.25200795468743,-5.5630484976150001],[105.25206048913338,-5.5629982111562981],[105.25216318234658,-5.5629287550586923],[105.25223482899713,-5.5628808539397028],[105.25239007900734,-5.5628137688541983],[105.25250232060682,-5.5627275539445122],[105.25259066602598,-5.5626245945760502],[105.25269330702588,-5.5624330686707708],[105.25268847306046,-5.5623014269005466],[105.25265805049429,-5.5621884383736528],[105.25263103841712,-5.562064492581726],[105.25263101187301,-5.5620022609583089],[105.25278859125632,-5.561796350365853],[105.25282679316939,-5.5617484635095025],[105.2528793274322,-5.5616981769839526],[105.25294733716038,-5.5616359082166014],[105.25299894868306,-5.5614853891598841],[105.25294907972523,-5.5612343795346533],[105.25292603820736,-5.5611674976727272],[105.25289343293213,-5.5611644149939821],[105.2528552044966,-5.5611500702295871],[105.25280024767613,-5.5611213714827272],[105.25277633626746,-5.5610687241878622],[105.25277870064906,-5.5610112785878414],[105.25284316999466,-5.5608784586189586],[105.25289806664489,-5.5608269260608267],[105.25297684389005,-5.5606952484506564],[105.25315741196965,-5.5605677363213886],[105.2533180113694,-5.5605847939891078],[105.25342593923091,-5.5606567593744671],[105.25351911933188,-5.5606878351692899],[105.25357168520173,-5.5607117478285204],[105.25367899355825,-5.5607367860997101],[105.25373809365232,-5.5607791128634858],[105.25383649300994,-5.560852432274487],[105.25390409366815,-5.5608920779476421],[105.25398028528792,-5.5609437439723592],[105.25405674320814,-5.5609748268755084],[105.25409976176394,-5.561017891789561],[105.25414755811306,-5.5610609546424143],[105.2541929614672,-5.5610944444248958],[105.25428374147737,-5.5610991923615529],[105.25430282180099,-5.5610273784134847],[105.25432906366143,-5.5609435937574858],[105.25433620876032,-5.5608933266699978],[105.25431708117816,-5.5608550385263129],[105.25423584034081,-5.5608119900961697],[105.25420000079225,-5.5607976443899361],[105.25414632412537,-5.560794877761623],[105.25408054590764,-5.5607737605910188],[105.25404470739113,-5.5607618083989792],[105.25399214252582,-5.5607402893066933],[105.25379615390472,-5.5605082017686982],[105.25370773212762,-5.5604316470086701],[105.2537028846495,-5.5602688894364292],[105.25360965952763,-5.5601324986140526],[105.25353313414195,-5.5599434430638439],[105.25349486276446,-5.5598285703298416],[105.25345654942578,-5.5596155631075703],[105.25343017850543,-5.5593977637038279],[105.25341339795301,-5.5592613400123696],[105.2534276125329,-5.5589836850674033],[105.25343230534634,-5.558785020517405],[105.25339640453586,-5.558627063308677],[105.25335576383844,-5.5585576685390947],[105.25323603105051,-5.5583522947997608],[105.25302247108044,-5.5581235519986194],[105.25289966433576,-5.5580331943698411],[105.25277688038722,-5.5579450192704485],[105.25271047034232,-5.5578662164754178],[105.25263877943291,-5.5578088025613397],[105.25257903089931,-5.5577465964796602],[105.25254556413893,-5.5576939532498386],[105.25252403668588,-5.5576293372878354],[105.2524690506508,-5.557531226284425],[105.25240931031686,-5.5574881683780291],[105.25235911837558,-5.5574283517105982],[105.25229936277918,-5.557349390925765],[105.25228501524521,-5.5573158877079436],[105.25225633953397,-5.5572943582350263],[105.25221094778533,-5.5572871970497886],[105.25217988829058,-5.5572776362154173],[105.25215359840922,-5.5572489251436537],[105.25210339060953,-5.5571517096321372],[105.25206152367184,-5.557006919247101],[105.25205671182511,-5.5569267382159637],[105.25204710696227,-5.5568106563561059],[105.25204938797464,-5.5565569417378242],[105.25204210840405,-5.5562912635725752],[105.25202414453526,-5.5561799723262766],[105.25202171801834,-5.5560914129367802],[105.2520514904212,-5.5558831635563592],[105.25207650388609,-5.5557191964178401],[105.25210633120787,-5.5556401973619245],[105.25213019143155,-5.5555731684768261],[105.2521731666929,-5.5555157055308655],[105.25220420827912,-5.5554833796900311],[105.252230468047,-5.5554414817895577],[105.25223163652117,-5.5553804464025234],[105.25222204846051,-5.5553038576957761],[105.25227217706862,-5.5552152758634747],[105.25231634316219,-5.5551494350619919],[105.25242853599713,-5.5549519213163308],[105.25248105545307,-5.5548681254964549],[105.25259203692883,-5.5546311190777828],[105.25264575076824,-5.5545473227339812],[105.25269947275137,-5.5544826745823457],[105.25283076198633,-5.5542516432490743],[105.25300147556669,-5.554039743208989],[105.25304081513082,-5.5539490599234682],[105.2531443690994,-5.5537946924516177],[105.25321868503363,-5.5536243735761559],[105.2532664168308,-5.55351784125736],[105.25328670581621,-5.553479536161035],[105.25330342019208,-5.5534615775587781],[105.25333327791282,-5.5534543841839081],[105.25337597988755,-5.5534633791112924],[105.25342764055495,-5.5534603275331165],[105.25346705679357,-5.5534603106266331],[105.25350408161199,-5.5534543109312153],[105.25361506601269,-5.5532256816755421],[105.25373080706731,-5.5529479830973401],[105.25377019255592,-5.5528761604372789],[105.25376540920394,-5.5528629981041036],[105.25373554332953,-5.5528510433033489],[105.25374270120932,-5.5528306952679145],[105.25377494672864,-5.5528211073219609],[105.25379524896942,-5.5528139180285052],[105.2538119581917,-5.5527839917904771],[105.25382745864556,-5.552720556722079],[105.25384058713428,-5.5526966158337245],[105.25386069906079,-5.5526917127521074],[105.25388000127236,-5.5526918118530375],[105.2538871678517,-5.5526918087743411],[105.25389910190739,-5.5526678683979753],[105.25390028250899,-5.5526355553039934],[105.25389429909308,-5.5526092291001987],[105.25388592016088,-5.5525673460133476],[105.25384885853543,-5.552487178847457],[105.25382495817018,-5.5524596635756325],[105.2538106065868,-5.5524165862897235],[105.25380342158098,-5.5523735059256296],[105.25379623145727,-5.5523184579387816],[105.25378784588236,-5.5522610169398945],[105.25381169811527,-5.5521760365600699],[105.25382169336899,-5.5521386119163481],[105.25381133516896,-5.5521146303346995],[105.25379375301657,-5.5521090255660965],[105.25377822339573,-5.5521042451842959],[105.25374835807185,-5.5520934871444183],[105.2537388005951,-5.5520887041975584],[105.25373759132486,-5.5520539986039807],[105.25372802617284,-5.5520312642226486],[105.25371248836694,-5.5520073356423154],[105.25368978910848,-5.5519953777605338],[105.25365992481449,-5.5519870132404776],[105.25367663658051,-5.5519630708176919],[105.25368499450963,-5.5519558866554348],[105.25370476291079,-5.5519436433675651],[105.25372081661595,-5.5519307392663109],[105.25371961451179,-5.5519127883447368],[105.25371602252767,-5.5518924449238511],[105.25371004526914,-5.5518804798643373],[105.25371003810528,-5.55186372519222],[105.25370524964694,-5.5518385952346989],[105.25367896404072,-5.5518194583163449],[105.25364313068468,-5.5518182769319537],[105.25361336998571,-5.5518237504018657],[105.25359587449566,-5.5518010339330885],[105.25357322651138,-5.5517716273665769],[105.25355472408052,-5.551774034648929],[105.25352843797054,-5.5517537009612283],[105.25349379035509,-5.5517321740956049],[105.25345556303654,-5.5517190261008409],[105.25344838726789,-5.5516974874519178],[105.25344120741084,-5.5516663747041548],[105.2534316397211,-5.551637656505136],[105.2534089343493,-5.5516113374634983],[105.25340174785168,-5.5515646668046088],[105.25338022464769,-5.5515096249533826],[105.25336109592325,-5.5514677464629472],[105.25334913989707,-5.551440226048328],[105.25333718029577,-5.5514043282969965],[105.25333119845209,-5.5513815923716834],[105.25331563002896,-5.5512858580374314],[105.25330964307915,-5.5512511544881704],[105.25330485770866,-5.5512332051000612],[105.25328573359621,-5.5512020974675238],[105.25326542374148,-5.5511913353061004],[105.25319256165676,-5.5511865794681512],[105.25316031161941,-5.5511853965178943],[105.25313881142438,-5.5511842089625816],[105.25311731173986,-5.551184218168828],[105.25311132480289,-5.5511495146168954],[105.25311011251125,-5.5511076284448677],[105.25310771906408,-5.551096858606229],[105.25312202717339,-5.551038211112143],[105.25312202053783,-5.551022653201187],[105.25315066737738,-5.5509771639553946],[105.25319006762419,-5.5509400474410882],[105.2532294617385,-5.5508885697757933],[105.25326289495058,-5.5508634234390115],[105.25329513424413,-5.5508394743745271],[105.25331901408447,-5.550819119178243],[105.2533691636342,-5.5507808012841338],[105.25342290974169,-5.5507735976714798],[105.25344560485911,-5.5507759814674955],[105.2534563807593,-5.5508370117393611],[105.25346594383552,-5.5508549590779808],[105.2534958121588,-5.550872897709894],[105.2535400141104,-5.5508920269554665],[105.25357107430727,-5.5509039812592391],[105.25359258267429,-5.5509243169967704],[105.25362126476119,-5.5509614043317583],[105.25363202380538,-5.5509829414419869],[105.25364757487796,-5.5510379858473584],[105.25365594302519,-5.5510547369325423],[105.25365833443618,-5.5510607197192599],[105.25370732588067,-5.5511073724347284],[105.2537622817909,-5.5511360711472548],[105.2537861713497,-5.5511384544166731],[105.2538315631499,-5.5511468122653014],[105.25387456046599,-5.5511420067509221],[105.25391039224496,-5.5511395978362543],[105.25392831069462,-5.5511443771897007],[105.25399042498361,-5.5511539246049892],[105.25402505977428,-5.5511455323850782],[105.25406327630714,-5.5511335483363382],[105.25409073172517,-5.5510952401353393],[105.25410982256682,-5.5510485581910984],[105.25412892314233,-5.5510246147301245],[105.25419938559156,-5.5510042394724337],[105.2542411812891,-5.55098267977354],[105.25425430408563,-5.5509455744920047],[105.25427221432767,-5.5509312056385056],[105.2543032822316,-5.5509611113372443],[105.25432955807304,-5.550957509745956],[105.25437494217061,-5.5509479161190711],[105.25439284830583,-5.5509239731640037],[105.25440371292848,-5.550893973314885],[105.25440761029961,-5.5508916590021613],[105.25442867185905,-5.5509024160223248],[105.25450870046905,-5.5509071686236666],[105.25451466798108,-5.5508963951922965],[105.2545433203515,-5.5508640702688012],[105.25457675504293,-5.5508425141471207],[105.25463288125985,-5.5508149644378477],[105.25463525830207,-5.5507874378770907],[105.25464121092006,-5.5507419583389037],[105.254641195516,-5.5507060554712098],[105.25463879485466,-5.5506785309681845],[105.2546029461667,-5.5506414467707827],[105.25461846291904,-5.5506163080760302],[105.25463159749353,-5.5506067283191101],[105.25466624661993,-5.5506318454067127],[105.2546984873822,-5.5506114865555105],[105.2547092315632,-5.5505983175393112],[105.25472952087546,-5.5505612091608896],[105.25475219030392,-5.5505037547940219],[105.25474380980728,-5.550458281430906],[105.25471990846097,-5.5504283726669996],[105.25469361672612,-5.5503948746443257],[105.25468405156749,-5.5503721402776023],[105.25470793647543,-5.5503637526506395],[105.25473660935552,-5.5503792982095206],[105.25476529251074,-5.5504187790121478],[105.25479995285662,-5.5504358408439884],[105.25484890792876,-5.5504319073621105],[105.25487637148677,-5.5504127473236053],[105.25492654248552,-5.5504246933172112],[105.25496953613828,-5.5504115103901768],[105.25498386821226,-5.5504091106841429],[105.2550232796155,-5.5503983228231277],[105.25504955285487,-5.5503887373899943],[105.2550722392179,-5.5503707761659484],[105.25509014273587,-5.5503408493801771],[105.255106854399,-5.5503169069205001],[105.25513431125535,-5.5502821889614893],[105.2551558021579,-5.5502618347255179],[105.25521433000591,-5.5502642029888989],[105.25523822570824,-5.5502809473477441],[105.25529079944931,-5.5503252048591207],[105.25532425673407,-5.5503563062346188],[105.25538518528481,-5.5503861989797088],[105.255412665302,-5.5504053353075165],[105.25547118852791,-5.5503969326850324],[105.25550702231186,-5.5503993107246288],[105.25552136674793,-5.5504256332983459],[105.25551302328864,-5.5504663268262107],[105.2555464769859,-5.550489050852832],[105.25558350880812,-5.5504998057064654],[105.25563606661456,-5.5505069635574955],[105.25568742226318,-5.5504961704876905],[105.25571966298065,-5.5504758115827144],[105.25572561705985,-5.5504339223236343],[105.25572680323472,-5.5504147736123173],[105.25573038341639,-5.5504075914893178],[105.25575426573033,-5.5503932200099371],[105.25578053998777,-5.5503860280691129],[105.25580920567359,-5.5503848189043765],[105.25580919845248,-5.5503680642340782],[105.25581515974568,-5.5503429296445574],[105.25582112052257,-5.550316598292909],[105.25586292539487,-5.5503165802027183],[105.25589040077966,-5.550324945648299],[105.25592860896063,-5.5502938132882491],[105.25599309035402,-5.5502530954517511],[105.25602652340717,-5.5502279489650164],[105.25605997039725,-5.5502351150547042],[105.25609102647297,-5.5502374951284423],[105.25610534717674,-5.5502087666286002],[105.25614117268691,-5.5501919964359558],[105.25617222359546,-5.5501824088841545],[105.25622118828886,-5.5501668297562219],[105.25624745529649,-5.5501428831254884],[105.25624147129099,-5.5501153601847477],[105.25630237143656,-5.550079430917549],[105.25634058474782,-5.5500602661536504],[105.25636566559189,-5.5500554682298002],[105.25639432919138,-5.5500494719890412],[105.25642059980572,-5.5500339026858683],[105.25644567961359,-5.5500267112345227],[105.25648748084348,-5.5500183157662946],[105.25651017283576,-5.5500135188727313],[105.25655317107396,-5.5500111066923523],[105.2565854163899,-5.5500015186012206],[105.25662004020518,-5.5499679942296893],[105.25662719536717,-5.5499416623529214],[105.25663554236547,-5.5499093461471034],[105.25663433448881,-5.5498782308508794],[105.25663528340493,-5.5498629118811778],[105.25665439087629,-5.5498552443086169],[105.25666680750328,-5.5498427925905958],[105.25669880833391,-5.5498202795666884],[105.25670119428332,-5.5498135766619612],[105.25672077703723,-5.5498001644217538],[105.25673463318134,-5.5498020732253508],[105.25675518161898,-5.5498121171063985],[105.25678194023277,-5.5498202434700374],[105.25680200800298,-5.5498235856890688],[105.25682732026087,-5.5498015542684698],[105.25684403722272,-5.5497900580888313],[105.25685406251125,-5.5497718629468409],[105.25686170081599,-5.5497579771858341],[105.25686838523859,-5.5497479214786267],[105.25688032284631,-5.5497325977349306],[105.2569018148065,-5.5497148763153064],[105.25691088351709,-5.5496942880633924],[105.25690983541614,-5.5496737425155516],[105.25691469096267,-5.5496602983593561],[105.25693285179409,-5.5496732155012296],[105.25694623368895,-5.5496832624897934],[105.25695722425047,-5.549687566057969],[105.25697108059978,-5.5496899535610282],[105.25698493238991,-5.5496818095572849],[105.25699113489526,-5.5496621799596824],[105.25699351669596,-5.5496459029571952],[105.25700449917417,-5.5496315370361913],[105.25700927251557,-5.5496214821579315],[105.2570040143583,-5.5496152612794276],[105.25700185740828,-5.5496091426411454],[105.2570006606465,-5.5495937210156399],[105.25701116535436,-5.5495793553021713],[105.25702024172796,-5.5495764791274951],[105.25703266269426,-5.5495740802037403],[105.25704125922556,-5.5495664171882026],[105.25706895346906,-5.5495285874600313],[105.25708901169384,-5.5495099092476607],[105.25709569009763,-5.5494859710978517],[105.25710380678436,-5.5494735212408841],[105.25711335864446,-5.5494653791039923],[105.25711716835804,-5.5494366551521352],[105.25712002439911,-5.549412239959338],[105.25712288043985,-5.549387824766427],[105.25713243146902,-5.5493777678100287],[105.25714390020983,-5.5493830285769832],[105.25715537309839,-5.5493978634403334],[105.25717735379868,-5.5494055131595132],[105.25717974243713,-5.5494050334158942],[105.25719837356877,-5.5494007169681367],[105.25720840298823,-5.5493920959172556],[105.25721938151565,-5.5493686346007962],[105.25722367770447,-5.5493600160434653],[105.25724134167962,-5.5493288925399042],[105.25725900523827,-5.5492968116260499],[105.25726616451391,-5.5492800538393112],[105.25726328897906,-5.5492594707787362],[105.2572733206772,-5.5492561154798636],[105.25728717473521,-5.5492532372228425],[105.25729815657678,-5.5492374351823628],[105.25730674895033,-5.5492201980666209],[105.25729957411573,-5.5492010529918048],[105.25728905759581,-5.5491881325347094],[105.25728602254168,-5.549171324670283],[105.25729314851208,-5.5491561659776494],[105.25730139508755,-5.5491386883674068],[105.25729858475961,-5.5491230245204406],[105.25729809640978,-5.549098610782039],[105.25728327789682,-5.5490809051473207],[105.25726798659451,-5.549074688635983],[105.25725842810471,-5.5490675122204607],[105.25725125680026,-5.5490565051268845],[105.25723739216818,-5.5490349694364909],[105.25723595201686,-5.5490191728005129],[105.25723785935872,-5.549010555282166],[105.25723497698203,-5.5489741749616428],[105.25724691083173,-5.5489502345244546],[105.25728369052496,-5.5489305916223088],[105.25729419749678,-5.5489214916574383],[105.25732190186216,-5.5489071184555883],[105.25733575279924,-5.5488970596252329],[105.25735438391371,-5.5488927431733828],[105.25736537321791,-5.5488941745056763],[105.25738161984611,-5.5488999118940114],[105.25738162399693,-5.5489094859906345],[105.25737064091794,-5.5489224158035313],[105.25735822266472,-5.5489310378964092],[105.25735488492342,-5.5489463579064022],[105.2573548896961,-5.5489573681175557],[105.25735776211951,-5.5489707706051945],[105.25735967755264,-5.5489808225749471],[105.25737275361502,-5.5489939287670609],[105.25737640755545,-5.5489994847858384],[105.25738119147002,-5.5490138438512417],[105.25740316925283,-5.5490147916952424],[105.25741750065805,-5.5490109558176641],[105.25742179995513,-5.5490095178315073],[105.25743374272355,-5.5490061616982871],[105.25744902842052,-5.5489994531750426],[105.25745762016362,-5.5489807799428945],[105.25746143712445,-5.5489688106581525],[105.257466684485,-5.5489501388819349],[105.25746667618091,-5.548930990688973],[105.25745616070049,-5.5489204637588614],[105.25744516620614,-5.5489070648075085],[105.25744133554537,-5.5488874395734342],[105.25745996312946,-5.5488749851363082],[105.2574699879691,-5.5488558325751569],[105.25746919280175,-5.5488379970676078],[105.25747757647099,-5.5488269867759072],[105.25748334348702,-5.5488050840391452],[105.25757402289321,-5.5487137501814345],[105.25762804799052,-5.5486681114134626],[105.25766577758083,-5.5486355430422236],[105.25768320506944,-5.5486100444124418],[105.25769633305561,-5.5485855050653754],[105.25768599591731,-5.5485444062971396],[105.25768555573575,-5.5485220813602609],[105.25769032796654,-5.5485095132769402],[105.25770047015726,-5.5484855736119698],[105.25771858669964,-5.5484542803598629],[105.25772730774827,-5.548400591794973],[105.25774077279459,-5.5483773420560283],[105.25774885907271,-5.5483483119148218],[105.25776326802321,-5.5482962079251479],[105.25779055412011,-5.5482671252360092],[105.25779711875714,-5.5482563515139987],[105.25780128805758,-5.5482306193075033],[105.25780246922812,-5.5482001013542686],[105.25780047647231,-5.548172331582407],[105.25778692357682,-5.5481582214499667],[105.25778929241403,-5.548112145069183],[105.25779584951539,-5.5480840182973452],[105.25781016956807,-5.5480540929981998],[105.25783226114481,-5.5480421157456021],[105.257860311569,-5.5479996184558331],[105.25788158973722,-5.5479993704535104],[105.25790808239384,-5.5479858348612083],[105.25793435235676,-5.5479690687337779],[105.25794688206946,-5.5479421361181949],[105.25796179724171,-5.5479074235070698],[105.25797373546135,-5.5478936555340965],[105.25799462740923,-5.5478697111761335],[105.25800477373764,-5.5478553456029545],[105.25802447698362,-5.5478445661476599],[105.25804418802971,-5.5478517381223469],[105.25802211674522,-5.5479103891027535],[105.25804183325414,-5.5479301270789847],[105.25805736149312,-5.547931915447748],[105.25806213839269,-5.5479301182202221],[105.25808960849002,-5.5479265159476086],[105.25812961141207,-5.5479031616268912],[105.2581403572886,-5.5478941812201583],[105.25817019515057,-5.5478421090385837],[105.25818810286074,-5.547822354644552],[105.25819764677004,-5.5477960217086206],[105.25821137661131,-5.547782252949105],[105.25822271214827,-5.5477559192306671],[105.25821911822129,-5.5477313871730303],[105.25821552533569,-5.547709248639535],[105.25821670986761,-5.547686509639334],[105.25822147713723,-5.5476625723127313],[105.25822027595262,-5.5476470149275769],[105.25821907424779,-5.5476302607803518],[105.25821845596226,-5.5475817921779935],[105.25821605775707,-5.5475602515040237],[105.25820470895394,-5.5475560677900262],[105.25819694028627,-5.5475447019394437],[105.25820589088443,-5.5475273449794145],[105.25821961837767,-5.5475081907906088],[105.25822677708612,-5.5474902362314538],[105.25823095495059,-5.5474842505961419],[105.25826021587386,-5.5474788523913503],[105.25827633558549,-5.5474674761115921],[105.25828349611351,-5.5474537102189743],[105.25830260056983,-5.5474393407297384],[105.25830975745288,-5.5474171975023978],[105.25830795593413,-5.5473944598059006],[105.25830494307928,-5.5473328278642953],[105.25830911079134,-5.5473035053685749],[105.25831268155406,-5.5472747815146022],[105.25831386660275,-5.5472532392760172],[105.25831086936472,-5.5472275101959099],[105.25830727673969,-5.5472059700435921],[105.25829950521222,-5.5471880220027856],[105.25828874946092,-5.5471742639327886],[105.25825470515474,-5.5471664998414667],[105.25822663892501,-5.5471724959050448],[105.25820156576509,-5.5471946469518798],[105.25818305748237,-5.5472066226529364],[105.25818365391126,-5.5472048272492316],[105.25818722493989,-5.5471767017766638],[105.25819497773296,-5.5471515663847981],[105.25820750585729,-5.5471210434780005],[105.258237354085,-5.5470929065351697],[105.25829048617697,-5.547048004753151],[105.25832869948806,-5.5470294382518546],[105.25840154154668,-5.5469893149021914],[105.2584236343738,-5.5469803295345628],[105.25844930785007,-5.5469653587903736],[105.2584493193076,-5.5469916875554759],[105.25844573969914,-5.5470000664552686],[105.25843798822041,-5.5470281937552386],[105.2584397905236,-5.5470527265944725],[105.25846069804874,-5.5470646850830576],[105.25849055876245,-5.5470652704170789],[105.2585114540471,-5.5470491049957786],[105.25852518725048,-5.5470431151828734],[105.25853355755453,-5.5470646532457977],[105.25854730143845,-5.5470831970542918],[105.25856223062345,-5.5470807970046394],[105.25858372493946,-5.5470688199869755],[105.25858610752266,-5.5470544577983674],[105.25861895740798,-5.5470622223927535],[105.25866136081441,-5.5470657941404511],[105.25870734278379,-5.5470585934597807],[105.2587467523241,-5.5470442150767667],[105.2587521165164,-5.5470196791043804],[105.25875569116721,-5.5469999309637501],[105.25877061148447,-5.546977185954745],[105.25878314244329,-5.5469532452282806],[105.25880164966236,-5.5469388759851768],[105.258830312822,-5.5469322812528503],[105.258860768651,-5.5469280792591462],[105.25887748267564,-5.5469101205117113],[105.25889598545666,-5.5468855787886469],[105.25891449032309,-5.5468658241130697],[105.25893299805779,-5.5468526516281713],[105.25895866968847,-5.5468334921956739],[105.2589837482837,-5.5468239071196308],[105.258999859874,-5.5467939810104099],[105.25901597485517,-5.5467718338537679],[105.25902849640516,-5.5467263514065053],[105.25902669460129,-5.5467030153318433],[105.25901951504926,-5.5466730994193654],[105.25901111794275,-5.5466457865147163],[105.25898784211705,-5.5466252427958693],[105.2589561822345,-5.5466073052207321],[105.25893706347284,-5.5465887637741389],[105.25894899251301,-5.5465540524477888],[105.2589657106991,-5.5465456677943621],[105.25898899817861,-5.546537280264829],[105.25900036053537,-5.5465725797769778],[105.25900574689354,-5.546598906188251],[105.25902426792715,-5.5466162511320931],[105.2590444892341,-5.5466218361961523],[105.25905413540329,-5.5466323943448401],[105.25906071043983,-5.5466455558503185],[105.25908042432758,-5.5466593099831698],[105.25910551152765,-5.5466694714753544],[105.25914134509026,-5.5466718493048575],[105.25916761835379,-5.5466628620792449],[105.25918075172109,-5.546650888703482],[105.25919328474583,-5.5466317350172289],[105.25920641523948,-5.5466131794499915],[105.2592171621211,-5.5466065925490966],[105.25924404643172,-5.5466293192513945],[105.2592798773797,-5.5466257132626424],[105.25932645860428,-5.5466232993218796],[105.2593622832801,-5.5466053321844129],[105.25938197757392,-5.5465742077327604],[105.25938555638265,-5.5465640336850583],[105.25940525537817,-5.546543680090565],[105.25943630054923,-5.5465215263768073],[105.25945600084856,-5.5465041646857003],[105.25947808788902,-5.5464820148983449],[105.25948524863907,-5.5464688473734896],[105.25949957484403,-5.5464532831813358],[105.25952166580277,-5.5464401091073228],[105.25954554106454,-5.546410179579027],[105.25957479564426,-5.5463904201683931],[105.25958613632645,-5.546376054046334],[105.25959388721986,-5.5463467299717877],[105.25959865808659,-5.5463311699699034],[105.25959705827563,-5.5463052141719231],[105.25960102442838,-5.5462797081571011],[105.25962072366866,-5.5462599529369072],[105.25963685038266,-5.5462647329090373],[105.25964437616,-5.5462786974752589],[105.25967149421359,-5.5462778820893845],[105.25970791397287,-5.5462551276222598],[105.25972821748144,-5.5462515284231699],[105.25973180360876,-5.5462581090409344],[105.25973897377048,-5.5462664832285782],[105.25976167474755,-5.5462826295517971],[105.25978616551873,-5.5462945864205153],[105.25980110279096,-5.5463107361509856],[105.25980529424152,-5.5463358663162126],[105.25980709528886,-5.546357407244443],[105.25981009049133,-5.5463783492673429],[105.25984354750716,-5.5464088520096197],[105.25986743819692,-5.5464142269462968],[105.2598823644783,-5.5464052446736787],[105.25990385978906,-5.5463956611339427],[105.25992415727831,-5.546378299165724],[105.25993310911826,-5.546363934086969],[105.25994564656401,-5.5463549528624299],[105.25995579753351,-5.546351358115885],[105.25998146884638,-5.5463316002602596],[105.25998982399977,-5.5463184322049983],[105.26001369923239,-5.5462885026589674],[105.26002265761736,-5.5462890971029992],[105.26003041320359,-5.5462705438810076],[105.26003936006197,-5.5462448095624381],[105.26004770028044,-5.5461975337914282],[105.26003753804991,-5.5461753981577999],[105.26002081255604,-5.5461670281733859],[105.26000348461588,-5.546146690831506],[105.26000945041028,-5.5461323270637308],[105.26001960635233,-5.5461401015547267],[105.26002973976716,-5.5460964152823067],[105.26003211523977,-5.5460658968030998],[105.26001776391274,-5.546024016434103],[105.26000999366124,-5.5460090603215804],[105.26000281957062,-5.5459917104226406],[105.25999444923116,-5.5459701723816011],[105.26000518666308,-5.545942043752234],[105.26002429469537,-5.5459360515445155],[105.26005295569519,-5.5459246697078015],[105.26009774864144,-5.5459300354489756],[105.26011804683441,-5.5459469698780595],[105.26014971699266,-5.5459557429886672],[105.26019212504201,-5.5459700854872835],[105.26021900254221,-5.5459772542402561],[105.26026020228346,-5.5459598830682921],[105.26028587435593,-5.5459419203432958],[105.26030318866356,-5.5459311418671291],[105.26033065025888,-5.5459083913044651],[105.26034139632799,-5.5459000092413362],[105.26035094168697,-5.5458772665606375],[105.26035332317468,-5.5458605108426582],[105.26036227473435,-5.5458455473769845],[105.26037780318507,-5.5458479340682061],[105.26038438558493,-5.5458778502251107],[105.26038976779944,-5.5458946025265163],[105.26040111527226,-5.5458957942948928],[105.26041365348806,-5.5458886082038816],[105.26042440821266,-5.5458999727107425],[105.2604387469716,-5.5459131307830489],[105.2604566613694,-5.5459089342301695],[105.26046203545263,-5.5459071367213824],[105.26048771014024,-5.5458951577974744],[105.2605050262797,-5.5458885679822743],[105.26051935323073,-5.5458747989098356],[105.26052472442649,-5.5458664192100287],[105.26054084798619,-5.5458640185863715],[105.26057966596562,-5.5458628047302909],[105.26059578506243,-5.5458502316290037],[105.26061070554272,-5.5458280849582593],[105.26062503275222,-5.5458149142643265],[105.26062920191697,-5.5457891820423697],[105.26062143165393,-5.5457742259383735],[105.26060947910014,-5.5457550830088849],[105.2606232033246,-5.5457287481973481],[105.26066859372941,-5.5457347120135978],[105.260698449909,-5.5457251247632371],[105.26071158506244,-5.5457173400222359],[105.26074204054908,-5.5457125395540174],[105.26078683926227,-5.5457310696243098],[105.26081550838035,-5.5457382375608404],[105.26082744754081,-5.5457268630580643],[105.26084416593812,-5.545719076734656],[105.26086746071309,-5.5457274437999331],[105.26090387881345,-5.545701098976906],[105.26092059221531,-5.5456819434136264],[105.26091998738571,-5.5456645906299968],[105.2609367039401,-5.5456526156374935],[105.26096896313578,-5.5456753398907495],[105.26099343865513,-5.5456525906157594],[105.26100597396623,-5.5456388223225872],[105.26101970001088,-5.5456166761692316],[105.26103342105864,-5.5455831607778805],[105.26103639631549,-5.545558625842375],[105.2610387769941,-5.54554007497984],[105.26105370376092,-5.5455322894411552],[105.26108774879066,-5.5455418485172459],[105.26112656885039,-5.5455454216737508],[105.26114089788257,-5.5455364396346454],[105.26117910258239,-5.5454987247674126],[105.26119700670074,-5.5454711913368442],[105.26122326724703,-5.54543348173911],[105.26123759101233,-5.5454125320793537],[105.26127759837294,-5.545399948414115],[105.26131820662391,-5.5453957418154118],[105.26135045265642,-5.5453885470021191],[105.2614035725054,-5.5453167178147851],[105.26141371554843,-5.5452951716168286],[105.26143340863808,-5.5452616535790753],[105.26144354720236,-5.5452299349049667],[105.26144652244108,-5.5452053999681539],[105.26143755669881,-5.5451880508791191],[105.26143456566064,-5.5451766829608573],[105.2614727913874,-5.5451868385496823],[105.26150026106711,-5.5451826377442899],[105.26153785824084,-5.5451215862638037],[105.261539046596,-5.5451078229749555],[105.2615360545027,-5.5450940615335753],[105.2615533677083,-5.5450808894989905],[105.26157127943748,-5.545070709104607],[105.26158142378756,-5.5450521548087295],[105.26160172355225,-5.5450401782147765],[105.26161664845449,-5.5450282039963668],[105.26164590025934,-5.5450024606797115],[105.26166201114,-5.5449713377428793],[105.26167751980472,-5.5449288458324304],[105.26167810884129,-5.5449102957600189],[105.2617031504069,-5.5448169372461393],[105.26170254107603,-5.5447894119882335],[105.26169178002368,-5.5447636863623302],[105.26168518545029,-5.5447062446991708],[105.26168219098412,-5.5446870978302059],[105.2616433222309,-5.544572824237207],[105.26161343977901,-5.5445225734398491],[105.26160507019574,-5.5445028305651363],[105.26156731013509,-5.5445035328201016],[105.26154713854658,-5.5444968723587635],[105.2615572414436,-5.5444737745392558],[105.2615578674513,-5.5444495955148909],[105.26154710772892,-5.5444268617901002],[105.26152081827479,-5.5443987494980433],[105.26149692291494,-5.5443826037678718],[105.26146825148652,-5.544370050432974],[105.26142106587713,-5.5443557101314127],[105.26136671458511,-5.5443431681335937],[105.26134760003907,-5.5443342008584864],[105.26130519103197,-5.5443174649139451],[105.26126577463538,-5.5443156871717179],[105.26123889983171,-5.5443145022724138],[105.26122576155899,-5.544315106452359],[105.26121380191557,-5.5442798072479604],[105.26120781854286,-5.5442540795028776],[105.26117615978069,-5.5442385355662509],[105.26114749257323,-5.5442355563102979],[105.26111764410143,-5.5442624966276526],[105.26112063933573,-5.5442834386436175],[105.26112540879842,-5.5443316285727064],[105.26112963976635,-5.5443797740244349],[105.26111770274144,-5.5443959355798142],[105.26106275713676,-5.5443899760079489],[105.26103826984013,-5.5443857981412066],[105.26103110099916,-5.5443804158733201],[105.26091702462111,-5.5443577276938072],[105.26086446705767,-5.5443499719071951],[105.26075576292021,-5.5443212975172287],[105.26066677079615,-5.5443021885230337],[105.26060047513585,-5.5442890533331024],[105.260543138358,-5.5442777093351765],[105.2604893798345,-5.5442549945159953],[105.26042762109699,-5.5442247125495783],[105.26036394425682,-5.5442041873149037],[105.2602026684753,-5.5441354444098465],[105.26000196901845,-5.5440481689635135],[105.25995597892387,-5.5440362215414325],[105.25991775434039,-5.5440284593736351],[105.2597385700621,-5.5439770772541124],[105.25968063925905,-5.543972914004712],[105.25958029481353,-5.5439412438192903],[105.25954565373672,-5.5439340784365072],[105.25952714741084,-5.5439502428421861],[105.25951041806775,-5.5439328971237956],[105.25949846767895,-5.5439185412155894],[105.25947926643533,-5.5439055807474347],[105.25945224760767,-5.5439031923455104],[105.25945246976505,-5.5438886423222016],[105.25943395011473,-5.5438742892919777],[105.25940469356004,-5.5438892616434146],[105.25940171876306,-5.5439149933368981],[105.25938917227637,-5.5439006724485012],[105.25937363467796,-5.5438797011557881],[105.25935093328326,-5.5438623580494664],[105.25932286199912,-5.5438563865369588],[105.25931211647253,-5.5438659653431159],[105.25929480142054,-5.543874948646021],[105.25925418985844,-5.543871376148104],[105.25924822458768,-5.5438869366711856],[105.25924106098921,-5.5438935220016106],[105.25922374332498,-5.5438965214919449],[105.25920223451811,-5.5438749891892485],[105.25917774020593,-5.5438546549553962],[105.25916997653036,-5.5438546583548032],[105.25915206479249,-5.5438648386771661],[105.25914669594209,-5.543878603794667],[105.25915447318795,-5.5439097162103508],[105.25915507900555,-5.5439294625236357],[105.25914374540253,-5.5439599849253796],[105.25913419584867,-5.5439731534918906],[105.25912285650321,-5.5439905115101169],[105.25909837366862,-5.5439965060396048],[105.25908942001462,-5.5440066824388055],[105.25908106461009,-5.5440192521007248],[105.25907330328016,-5.5440246409284555],[105.25903807830065,-5.5440479932112225],[105.25903390803171,-5.5440713319019324],[105.2590273439821,-5.5440833023980076],[105.25901062821202,-5.5440970724800991],[105.25899928729575,-5.5441108402097257],[105.25898734969439,-5.5441258049626754],[105.25898317733669,-5.5441443566046473],[105.2589748247965,-5.5441635084568475],[105.25895691304601,-5.5441736887736965],[105.25894616359614,-5.544174291857928],[105.25891920875887,-5.5441839713153627],[105.25891032989819,-5.5441960244750703],[105.25890796039357,-5.544215596871652],[105.25890557547984,-5.5442245736325049],[105.25890199719657,-5.5442359444401177],[105.25889490311744,-5.5442555181388684]],[[105.25889490311744,-5.5442555181388684],[105.25889483932582,-5.5442556941498538],[105.25888170443886,-5.5442640772315599],[105.25889663057933,-5.5442548556326869],[105.25889490311744,-5.5442555181388684]],[[105.25889490311744,-5.5442555181388684],[105.25885532229279,-5.5442706979447962],[105.25883642948122,-5.544295471098394],[105.25882882256735,-5.5443343503097822],[105.25882501254125,-5.5443621168623736],[105.25882024615061,-5.5443879690135418],[105.25879637499332,-5.5444272332570677],[105.25877153662782,-5.5444396904460973],[105.25874957735959,-5.5444808686717693],[105.25874194437381,-5.5445067220755959],[105.25871424191376,-5.5445249249737572],[105.2586597908516,-5.5445575007099706],[105.25863494997702,-5.5445642134353079],[105.25861964940447,-5.5445364552346632],[105.25858620583938,-5.5445364698479693],[105.25855417135551,-5.5445385407776939],[105.25852927899143,-5.5445443551400899],[105.25849639889122,-5.5445661887864617],[105.25844002550775,-5.5445729152755234],[105.25841422118725,-5.5445614376242247],[105.25832440173798,-5.5445624342455062],[105.25824031089331,-5.5445528968444933],[105.2581409278198,-5.5445347494122643],[105.25797560857848,-5.544506099198145],[105.25791540766789,-5.544500380976217],[105.25786551926836,-5.5444963736146065],[105.25782251697223,-5.54448849371704],[105.25779886323284,-5.5444784512162641],[105.25778308576622,-5.5444526080198671],[105.25775083163279,-5.5444411331479841],[105.25773221124985,-5.5444698635557188],[105.25773078854417,-5.5444942781290933],[105.25770713854331,-5.5444928523126578],[105.25768490875868,-5.5444612674631912],[105.25766450277013,-5.5444422823032369],[105.25759814186796,-5.5444321255664022],[105.25756620102209,-5.5444272369205123],[105.25751961129407,-5.5444201062143748],[105.25749426613294,-5.5444283197927007],[105.25748782812758,-5.544455608778037],[105.25747852010784,-5.544475000379407],[105.25741474125238,-5.5444814906400097],[105.25738893633167,-5.544468576828308],[105.25736169656159,-5.544452073351863],[105.2573280166032,-5.5444578324564304],[105.25731225563806,-5.5444700462862784],[105.25726925334902,-5.5444621663481257],[105.25722840380234,-5.5444607479885804],[105.25721191219924,-5.544440649546118],[105.25718108950696,-5.5444248656756372],[105.25713450398376,-5.5444169872844782],[105.2571151433084,-5.5443911456254114],[105.25709650363211,-5.5443753564575786],[105.25705064252736,-5.5443854291826256],[105.25704061784614,-5.544404821089131],[105.2570062150271,-5.5443962193391485],[105.25700763931547,-5.5443753950528389],[105.25695195424402,-5.5443461390181596],[105.25689583171572,-5.5443510296382783],[105.25687721315552,-5.5443840683652184],[105.25686216758839,-5.5443934096428507],[105.25683707498501,-5.544370442691843],[105.25681843935098,-5.544363988260784],[105.25681269685884,-5.5443424490269422],[105.2567926152073,-5.5443065548640789],[105.25676609272813,-5.5442914871628659],[105.2567546145757,-5.5442642059562672],[105.2567137566661,-5.5442434000109415],[105.25667577930739,-5.5442549054022265],[105.25666648056836,-5.544295838714163],[105.25666668920644,-5.5443245250102677],[105.25662277963784,-5.5443296063679099],[105.25656473117527,-5.5443296315341968],[105.25654569334353,-5.544315729974528],[105.256522431912,-5.5442901567042782],[105.25648230305336,-5.5442980727283953],[105.25642603467122,-5.5443070321128403],[105.25640993682339,-5.5443332889034309],[105.25636549815994,-5.5443182289454285],[105.25629024705574,-5.5443110809603695],[105.25623793332323,-5.5443146938989685],[105.25620855603154,-5.5443269135951709],[105.256182047187,-5.5443434403937317],[105.25613546787059,-5.5443499230715929],[105.25609318905845,-5.544357840000032],[105.25608600741685,-5.5443226582869443],[105.25604227952999,-5.544293954902912],[105.25598711405456,-5.5443320358163533],[105.2559484132218,-5.5443277442083172],[105.25591903468575,-5.5443370916607364],[105.25590399219618,-5.5443536134890792],[105.25590112251268,-5.5443464341540789],[105.2558688616142,-5.5443191619139043],[105.25578859521534,-5.5443148882633864],[105.25577353850429,-5.5442983794459906],[105.25575345753361,-5.5442639213597431],[105.2557054266905,-5.5442280392333032],[105.25565813567175,-5.5442460111022456],[105.25560869161808,-5.5442568033215593],[105.25556497086092,-5.5442446152225102],[105.25554275879853,-5.5442539595618427],[105.25549331258037,-5.5442597253693293],[105.25546321368722,-5.5442604564190106],[105.25541734082884,-5.544243242834682],[105.25535569431906,-5.5442088026696865],[105.25529763876671,-5.5441923123892138],[105.25523743790143,-5.5441865938921637],[105.25518225202813,-5.5441772829387332],[105.25513280087847,-5.5441715597961547],[105.25510628214352,-5.5441651087081709],[105.25506543538961,-5.5441701527156511],[105.25505540478929,-5.544175901499159],[105.25505541095362,-5.5441902626489536],[105.25504825434035,-5.5442132435768485],[105.25501958473694,-5.5442046392388988],[105.25497585598248,-5.5441737816007617],[105.25494503767152,-5.5441680504151236],[105.25492281081455,-5.5441429279717909],[105.25486906009195,-5.5441379247163809],[105.2548368097203,-5.5441350663723483],[105.25477733074445,-5.5441415544971164],[105.25470136979629,-5.5441502038817134],[105.25463340982606,-5.544150852633436],[105.25459315785787,-5.5441545587843848],[105.2545052251939,-5.5441929916585764],[105.25443050252937,-5.5442099191671446],[105.25437690133072,-5.5442382099940914],[105.2543261076878,-5.5442565939895303],[105.25427572599204,-5.5442552233142237],[105.25420979440116,-5.5442552516359456],[105.25416465112272,-5.5442681960615801],[105.25412523826043,-5.5442746755043117],[105.25406433179762,-5.5442948072671356],[105.25403925587904,-5.5443106152997075],[105.25400486200266,-5.5443228370418183],[105.2539344044194,-5.5443527863454847],[105.25390669771758,-5.5443614149245946],[105.25387326314944,-5.5443824922923568],[105.25386084738818,-5.5443968587717336],[105.25384365929085,-5.5444236736307744],[105.2538226474332,-5.5444466604882905],[105.25380163393822,-5.5444658177048041],[105.2537901737042,-5.5444801837728619],[105.25372617685997,-5.5445357410067686],[105.25371280801403,-5.5445558523531417],[105.25369943834971,-5.5445740488792126],[105.25364784990137,-5.5445980062476679],[105.25362587677739,-5.5446075897670539],[105.25357906107445,-5.5446200561611931],[105.25355135925707,-5.544640173645405],[105.25350740932572,-5.5446507239857397],[105.25344053114043,-5.5446718156550219],[105.253362193518,-5.5447091881976007],[105.25335646604708,-5.5447225943933063],[105.25333736603858,-5.544747495236777],[105.25332495719624,-5.5447781376771559],[105.25330968257521,-5.544810696164518],[105.25330586902203,-5.5448308034124807],[105.25331742771397,-5.5448677369476513],[105.25330972421108,-5.5449083519942519],[105.25330782539413,-5.5449370751150582],[105.25330401469768,-5.5449638842335958],[105.25330306528895,-5.5449782457939705],[105.25329161156384,-5.5450079304147266],[105.25328397588277,-5.5450280392984155],[105.25327060701107,-5.5450481506357505],[105.25324386191926,-5.5450711399279839],[105.25322093854425,-5.5450931701733452],[105.25320661985012,-5.5451266856596249],[105.25319994459278,-5.5451582830546613],[105.25319517550241,-5.5451783907108165],[105.25318659366849,-5.5452205204343272],[105.25318277847697,-5.5452367980412305],[105.25316463495665,-5.5452639962552439],[105.25316368676846,-5.5452812300457026],[105.25315129096231,-5.5453425096058027],[105.25312168782284,-5.545385605731326],[105.25311310271809,-5.5454200761731158],[105.25310546824977,-5.5454430572850697],[105.2530911450545,-5.5454660412577255],[105.25307777739073,-5.5454890248214497],[105.2530596398127,-5.5455302012198899],[105.25305964593031,-5.5455445623712762],[105.25304246877567,-5.5455972272815757],[105.25304056831385,-5.5456221207612089],[105.25304057320773,-5.5456336096822838],[105.25300810385625,-5.545677664438756],[105.25296702206634,-5.5456920431572598],[105.25294983919241,-5.5457313043239083],[105.25295653403708,-5.5457456626159001],[105.25294936743057,-5.5457941133522013],[105.25293717841754,-5.545824640628723],[105.2529135807153,-5.5458529109270103],[105.25290403109216,-5.5458663187525303],[105.25288684372595,-5.5458950484065781],[105.25289230669307,-5.5459293597580199],[105.252881712678,-5.5459534413736833],[105.25285910815194,-5.5460028543885187],[105.25287160940388,-5.5460223904829036],[105.2528658819104,-5.5460357966744596],[105.25285633839667,-5.546063565650627],[105.25282864586092,-5.546105703536341],[105.25281813906867,-5.5461152821285964],[105.2527936314919,-5.5461446766457243],[105.25277857251263,-5.5461770147852576],[105.25278377816579,-5.5462052933748964],[105.25277041088179,-5.5462292343424906],[105.25274463265902,-5.5462790306888223],[105.25273127270447,-5.5463202050372047],[105.25271313263511,-5.5463556369655862],[105.25268638348075,-5.5463749844132622],[105.25268639764664,-5.5464025614874686],[105.2526883250066,-5.5464408570749697],[105.25267400910383,-5.5464810744202282],[105.25265586902651,-5.5465165063469613],[105.25264250091612,-5.5465385324918088],[105.25262627393977,-5.5465787506521451],[105.25261005347636,-5.546634287373422],[105.2525995507433,-5.5466534400632668],[105.25260338102407,-5.546672586633008],[105.25260817457649,-5.5467099235865476],[105.25260532385397,-5.5467472638039226],[105.25256328318881,-5.5467539836249102],[105.25253366650605,-5.5467654851912016],[105.25254419244794,-5.5468009048777276],[105.25252891610791,-5.5468296337066363],[105.2524945156423,-5.5468267761590369],[105.25248306347282,-5.5468602904061299],[105.25247161292987,-5.5468976342933161],[105.25248879516488,-5.5469256431879899],[105.25246112687415,-5.5469560407945551],[105.25244679995689,-5.5469704080624638],[105.25243871860602,-5.5470661525372975],[105.25244469833007,-5.5470841014280268],[105.25244829786516,-5.5471223963023135],[105.25246454509363,-5.5471385242248061],[105.25247460153497,-5.5471846167433796],[105.25245434212445,-5.5472364068970137],[105.25244352277923,-5.5473295328088739],[105.25243801252441,-5.5473700483196353],[105.25244483975456,-5.5474168014316092],[105.25246754593388,-5.5474455140484338],[105.25247710892165,-5.547463461408995],[105.25248430189743,-5.5475256900047611],[105.25249745781434,-5.5475663743245036],[105.25250107923858,-5.5476561299886384],[105.2525130463377,-5.5477099792058198],[105.25254174193719,-5.5477793791968111],[105.25256684512055,-5.5478272389898393],[105.25258836301077,-5.5478703132615692],[105.25258122092367,-5.5479277609249493],[105.25252151211708,-5.5479565087264291],[105.25245699967314,-5.5479242236701225],[105.25235545867889,-5.5478883641172843],[105.25229573105031,-5.5478728316804222],[105.25220731395586,-5.5478022603816157],[105.25217386256685,-5.5477843232016539],[105.25214516904214,-5.5477197102412674],[105.25209617800601,-5.5476730573726627],[105.25202092142246,-5.5476539412362627],[105.2519624060177,-5.5476802949473836],[105.25194688922079,-5.5477054335767093],[105.25189792713752,-5.5477269961610318],[105.25184176909181,-5.5476791495597126],[105.25179755880623,-5.5476396752067672],[105.25175693990388,-5.5476193475274727],[105.2517473728758,-5.5475918260532353],[105.25172586165121,-5.5475643096619365],[105.25168285746736,-5.5475523603324746],[105.25163866140116,-5.5475463953212625],[105.25160521612725,-5.5475428192596041],[105.2515777262214,-5.5474997474879046],[105.25151799510127,-5.5474758376308841],[105.25148814778822,-5.5475069661566181],[105.25142123951247,-5.5474579273199538],[105.25140927961064,-5.5474208327531755],[105.25136626936387,-5.5473945222474867],[105.25129579962856,-5.5473969457144108],[105.25126472750628,-5.5473562689743403],[105.25120977003945,-5.5473227829536995],[105.2511560201574,-5.5473204122512243],[105.25109628654059,-5.5472905185363288],[105.25108552462353,-5.5472618007937626],[105.25102101688037,-5.5472402864376704],[105.25098159143772,-5.5472175646701771],[105.25091468980827,-5.5471840836881938],[105.2508657019435,-5.5471446112869671],[105.25085016438646,-5.5471206826164234],[105.2508226821364,-5.5470955622470797],[105.25078803337516,-5.5470704449145387],[105.2507820501632,-5.5470441186654966],[105.25074977710716,-5.5469878844857021],[105.25070078320738,-5.5469340509160361],[105.2506398567478,-5.5469077479462499],[105.25055386416602,-5.5469209487658873],[105.25050489956618,-5.5469365274208826],[105.25044876088191,-5.5469341576640545],[105.25043560511921,-5.5468934732908792],[105.25042603513702,-5.5468587712144313],[105.25040810826391,-5.546833646779362],[105.25037345600344,-5.5468001520811754],[105.25032927513473,-5.5468300898532448],[105.25030656252301,-5.5467858192313884],[105.25027669853461,-5.5467774545248858],[105.25024325280464,-5.5467726816209506],[105.25020859904447,-5.5467355966239325],[105.25017634622321,-5.5467272329224784],[105.2501393207703,-5.5467308388676884],[105.25009872869236,-5.546773939499019],[105.25009276667959,-5.5467978772805395],[105.25003902389869,-5.5468122611540025],[105.25002469289279,-5.5468170542630446],[105.24999843281529,-5.5468577553045861],[105.24998529673036,-5.5468637446709295],[105.2499494541018,-5.5468398245542971],[105.24988135361849,-5.5467955730894687],[105.24975301118332,-5.5466484254258148],[105.2496970888696,-5.5465924405182818],[105.24967699427339,-5.5465249515602864],[105.24968987225242,-5.5464732459595325],[105.24966832745821,-5.5463655463723853],[105.24964825098226,-5.5463411408767342],[105.24959376442285,-5.5462908998142098],[105.24952205654517,-5.546188965842191],[105.24940158210921,-5.5460051938192123],[105.24934278665927,-5.5459334128101432],[105.24922808168236,-5.5458358052622998],[105.24894414267249,-5.5454883847579595],[105.248678821846,-5.5451050533776538],[105.2484823632995,-5.5448739212381497],[105.24840347849414,-5.5447461400360112],[105.24836618514973,-5.5446800943544758],[105.2483391325423,-5.5446018588928041],[105.24827493655653,-5.544560215450133],[105.24819843599261,-5.5445523504075709],[105.24810584405282,-5.5445192722507386],[105.24805091371894,-5.5445171329427012],[105.2479905095521,-5.5445173037554127],[105.24794473705606,-5.5445395317030943],[105.24789314256401,-5.54454960612793],[105.24780285025173,-5.5445625689845883],[105.24774840113736,-5.5446013669126728],[105.2476910860201,-5.5446416021515006],[105.24766100653505,-5.5446890065684329],[105.24754922071958,-5.5447163395419352],[105.24742165725883,-5.5447163928861869],[105.24740856127175,-5.5447768421896058],[105.24741167500986,-5.5448384669234088],[105.24737730935232,-5.544918903788016],[105.24733576882591,-5.5449792380248937],[105.24729135870643,-5.5450323928780563],[105.24723117632169,-5.5450711931570709],[105.24719106548309,-5.5451229100909813],[105.24715811515551,-5.5451602628713204],[105.24709507033333,-5.5452091171451912],[105.24700477968975,-5.5452263882324928],[105.24692731948829,-5.5450770644872023],[105.24687997767887,-5.5449736838806416],[105.2468527145856,-5.5449004533324455],[105.24685697390419,-5.5448027956606438],[105.24676091672114,-5.5447396466114469],[105.24664480889646,-5.544713844921489],[105.2466132519142,-5.5446549773106995],[105.24665479130266,-5.5445917708898378],[105.24669489500064,-5.5445228206001502],[105.24666759558545,-5.5443619869707277],[105.24662744480355,-5.5443174841022369],[105.24661165470098,-5.5442600460355607],[105.24656720404187,-5.5442155449539996],[105.24654677847059,-5.5442018392792534],[105.24645394683716,-5.5441509668968934],[105.24645535690303,-5.5440949577787251],[105.24646822856994,-5.5440274549583251],[105.24650689895913,-5.5439585052777147],[105.24643519606292,-5.5438666236989889],[105.24640937292605,-5.5438091898017205],[105.24639788572267,-5.5437589305164465],[105.2464451677854,-5.5437186995788466],[105.24644369518307,-5.5436239165225061],[105.2464408047714,-5.5435664730775898],[105.24644938250339,-5.5435133332066471],[105.246485185084,-5.5434415124890961],[105.24655395580555,-5.5433754225039706],[105.24661129174405,-5.5433854514339487],[105.24668869559184,-5.5433997803440889],[105.24674171436021,-5.5433681636909],[105.24676176080027,-5.543320763500617],[105.24674452967071,-5.5432446565251325],[105.24673448290071,-5.5432116300402186],[105.24672247435279,-5.5431944914294036],[105.2467392872972,-5.5431680177642306],[105.24666852814119,-5.5431556489944569],[105.24663696707438,-5.5430867285664362],[105.24659967284197,-5.543017810524475],[105.24656955521266,-5.5429733034664537],[105.2465609346014,-5.5429230429890026],[105.24654943549115,-5.5428440613854377],[105.24650784021566,-5.5427722728946947],[105.24647628633579,-5.542720585847519],[105.24632289248206,-5.5426445355273586],[105.24629421711171,-5.5426215695970313],[105.24627984848456,-5.5425354085978142],[105.24636584720577,-5.5425382450504799],[105.2465794095263,-5.5425424644919872],[105.24672990579899,-5.5425438379094771],[105.24681478044602,-5.5425488573671373],[105.24695205892101,-5.5425265118931861],[105.24699382225316,-5.5425397131151044],[105.24705670058472,-5.5425537544440999],[105.24709784190316,-5.542536342594417],[105.24719859650605,-5.5425536952148491],[105.2472573435607,-5.5425105871979667],[105.24732040243367,-5.54249619969778],[105.24736196790104,-5.5424961823329113],[105.24741502002871,-5.5425449881144573],[105.24746244981128,-5.5425242669690533],[105.24746086385073,-5.542493268773228],[105.24750099482947,-5.5424903797659795],[105.24759416060004,-5.542494649160119],[105.24763428798769,-5.5424831434484645],[105.24768637000568,-5.54251571048286],[105.24775749978363,-5.5425129924388443],[105.24789373119023,-5.5425246822431973],[105.2480523337988,-5.5425017260138816],[105.24821751125432,-5.5424957369197045],[105.24827040840074,-5.5424941213301508],[105.2484140113674,-5.542512975242289],[105.24848281598241,-5.5425287436455051],[105.24852724142687,-5.5425129277221572],[105.24856163802974,-5.542507168818247],[105.24863903158513,-5.5424970835087493],[105.24875452898152,-5.5424748853649817],[105.24881960531354,-5.5424467435868223],[105.24885685766981,-5.5424151333778013],[105.24886688169192,-5.5423935874243284],[105.24892271090056,-5.5422284106139728],[105.24893697945936,-5.5420747402019401],[105.24900844427901,-5.5415979196334888],[105.24900981921968,-5.5414586158001384],[105.24900980358012,-5.5414212767896629],[105.24900690632472,-5.541348036090028],[105.24899972063196,-5.5413020833980795],[105.24899827350902,-5.5412690533376008],[105.2489996923623,-5.5412345859556922],[105.24905694389861,-5.5410435584459492],[105.24906122812189,-5.5410062176268866],[105.24905690539697,-5.5409516470347739],[105.24903679725691,-5.5408511273666932],[105.2490396307486,-5.5407721397917271],[105.24904676169615,-5.5406874059450502],[105.24905391249291,-5.5406500639201113],[105.24910257747871,-5.5404906345697782],[105.24913265123251,-5.5404303050451063],[105.24915267753192,-5.540335512960155],[105.24913685662466,-5.5402048330520302],[105.24913826283455,-5.5401402072367318],[105.24909809232213,-5.5400483127021971],[105.24905507329538,-5.5399995028450348],[105.24901205968797,-5.5399636180271159],[105.24895184425372,-5.5399219959713264],[105.24889450140927,-5.5398947338633207],[105.24886438919117,-5.5398631519607875],[105.2488529102871,-5.5398329983447638],[105.2489002002896,-5.5398128728494953],[105.24891020563621,-5.5397468073032314],[105.24886574314525,-5.5396735840624274],[105.24885854667212,-5.5396017812788045],[105.24881548879364,-5.5394599828966875],[105.24879397570828,-5.5394269612608582],[105.2487265777059,-5.5393465670584874],[105.24868786461928,-5.5393121165236607],[105.248627657079,-5.5392891639370987],[105.24861903456139,-5.5392345951409538],[105.24864482166487,-5.5392058619943327],[105.24865627832912,-5.5391828793266313],[105.24865626451952,-5.5391498486602018],[105.24864477543463,-5.5390952810673184],[105.24864044496462,-5.5390220409591393],[105.24863896485328,-5.5389100245170653],[105.2486203165638,-5.5388726933220482],[105.24858867689744,-5.5386156417970938],[105.24857287238012,-5.5385237369899301],[105.24854555360656,-5.538316947713497],[105.24854696108565,-5.5382551941248153],[105.24856126869798,-5.5381948712406484],[105.24856554333854,-5.5381345525651682],[105.24860128774742,-5.5379248645970165],[105.24862705018921,-5.5378372506964411],[105.24863991910257,-5.5377640033677835],[105.24863989989535,-5.5377180476556873],[105.24867569348356,-5.5376261211951032],[105.24872292748302,-5.5374724369316368],[105.24874440145993,-5.5374121110351666],[105.24874581132201,-5.5373561019092108],[105.24876297644823,-5.5372742360768257],[105.24882458403073,-5.5372182016778879],[105.24883746251993,-5.5371679322012142],[105.24881308957043,-5.537150709039679],[105.24874142082058,-5.5371392501956507],[105.24856082407695,-5.5371307092728443],[105.24848629477299,-5.5371336127604991],[105.24843040648949,-5.5371566140527761],[105.24841319814732,-5.5371350795218177],[105.24840643379912,-5.5367610269083798],[105.24839507333974,-5.5366348878039275],[105.24838501281914,-5.5365688306687844],[105.2483491730876,-5.5365501761752398],[105.24822735288427,-5.5365703328377549],[105.24806683118112,-5.5365833250936021],[105.24801523977033,-5.5365991439653612],[105.24790058054634,-5.5366063725173262],[105.2477357637726,-5.5366308554120565],[105.2476569406665,-5.5366481217517958],[105.24756664177193,-5.5366424150120679],[105.24754080752109,-5.5365576949336059],[105.24758092794167,-5.536530391963197],[105.24763252832486,-5.5365361148716943],[105.24770561830695,-5.5365188509318841],[105.2477385609692,-5.5364642647393225],[105.24775715769817,-5.5363780899809854],[105.24774566636813,-5.5363177778947943],[105.24780872278279,-5.5362990820210598],[105.24783736678978,-5.5362473698535268],[105.24785885756819,-5.5362272552371792],[105.24790960701409,-5.5362132084410973],[105.24793020819351,-5.5361819900171554],[105.2479646219756,-5.5361358679406294],[105.24801599589563,-5.536067520444135],[105.24800353473285,-5.5360261384227556],[105.24799778786252,-5.535993110149775],[105.24801497041852,-5.5359528917011858],[105.24804791900851,-5.5359126666545535],[105.24807225836037,-5.5358494673468499],[105.24807798667433,-5.535837976018172],[105.24814255932824,-5.5357944863526996],[105.2481567779206,-5.5357445954714422],[105.24815245653593,-5.5356928970899162],[105.24815098972647,-5.5356124751851326],[105.24811513868474,-5.5355665344667955],[105.24806106568263,-5.5355405134621947],[105.24798612237436,-5.5355148882622416],[105.2479775107563,-5.535486169536],[105.24792590448004,-5.5354660854916347],[105.24784420541442,-5.5354603751893592],[105.24783272964618,-5.5354374021239323],[105.24787284160561,-5.535389993510023],[105.24786851426836,-5.5353239339626157],[105.24783983681505,-5.5352952236235069],[105.24781831676745,-5.5352449685438501],[105.24781544184685,-5.5352248641151505],[105.24780539696746,-5.5351961459847985],[105.24779106003882,-5.5351860991623312],[105.24778388589471,-5.5351674326468583],[105.24780105768173,-5.5351013641115969],[105.24780186218311,-5.5350698533089258],[105.24774515042708,-5.5350784096143002],[105.24772651248469,-5.5350654923544198],[105.24770643828089,-5.535045395111581],[105.24762473867628,-5.5350382486599869],[105.24761900856782,-5.5350454316359787],[105.24755308692386,-5.5350670009142391],[105.24754878829629,-5.5350698749422236],[105.24751724551703,-5.5350440380155419],[105.24750289605566,-5.5350038327441666],[105.24746848673425,-5.5349779970113104],[105.2473710085942,-5.5349406986633767],[105.24733660465279,-5.5349277879689112],[105.24727639581988,-5.5349005268706151],[105.24720042277175,-5.5348775806889421],[105.24717315538675,-5.5347928611813018],[105.24716166832764,-5.5347426018907981],[105.24711864806778,-5.5346894835110447],[105.24707994551886,-5.5346794468255212],[105.24699968460504,-5.5346852247348579],[105.24694809511163,-5.5347053518576672],[105.24690366364086,-5.5347053703628717],[105.24686925793537,-5.5346881512909363],[105.24682430467186,-5.5346220703834206],[105.24676316416321,-5.5346120812780555],[105.24670152687526,-5.5345963096460764],[105.24667142338097,-5.5345848332385117],[105.24660979799739,-5.5345977839242551],[105.2465983449024,-5.5346293832537299],[105.24654387695563,-5.5346207892063148],[105.24651661681321,-5.5345533030596812],[105.24654669710509,-5.5345087709362701],[105.24656817656631,-5.5344613701550429],[105.24652228567061,-5.5343982001055565],[105.24643915348429,-5.5343924901983428],[105.24630442111061,-5.534381057250414],[105.24626575958882,-5.5344701125433176],[105.24623853453551,-5.5344873572509528],[105.24619263594991,-5.5344055176609004],[105.24626570611656,-5.5343408620652781],[105.24635169889655,-5.5343322096420593],[105.24641619318237,-5.5343250022582993],[105.24655865356561,-5.5343191061990069],[105.24661826257295,-5.5342717819280551],[105.24667271085013,-5.5342329841293463],[105.24667698864761,-5.5341798460341352],[105.24668270031145,-5.5341281434589291],[105.24669844368663,-5.5340735644766141],[105.2467285346554,-5.5340548824398752],[105.24678441736791,-5.5340189562682554],[105.24684888600621,-5.5339499958346892],[105.24689043896603,-5.5339212562021771],[105.2469549302196,-5.5339068681801677],[105.24701511569697,-5.5338781207788657],[105.24703372676987,-5.5338264128274091],[105.24703227562117,-5.533783329933442],[105.24701362224238,-5.533733073622443],[105.24697144718658,-5.5337163066449193],[105.2469562550674,-5.5336454944022648],[105.247000675138,-5.5336181896853986],[105.24702359495444,-5.5335880216888427],[105.24706374381293,-5.5336296523448141],[105.24706950192729,-5.5336899668437241],[105.24709243604781,-5.5336942656375072],[105.24715263759452,-5.5337042933649627],[105.24718272256723,-5.5336712501430156],[105.24719702963353,-5.5336094911648956],[105.24716404294657,-5.5335578047167928],[105.24710742510689,-5.5335000819202378],[105.24709663214765,-5.5334443795967445],[105.2471625601915,-5.533438607655512],[105.2471711532541,-5.5334228067910658],[105.24715679730195,-5.5333668042262616],[105.247120759734,-5.533358233496358],[105.24708081849627,-5.5333294968552877],[105.24711991092533,-5.5332857882366397],[105.24714672208569,-5.5332648441446395],[105.24711677501034,-5.5332198540650666],[105.24705733949281,-5.5331633958124371],[105.2470430048113,-5.5331586147284497],[105.24700240047326,-5.5331705992804814],[105.24696178918401,-5.5331658291383974],[105.24692354980277,-5.5331203680337353],[105.2469235259797,-5.5330629233770878],[105.24690200510446,-5.5330102747260526],[105.24683627887163,-5.5329265286127907],[105.24688404358704,-5.5329001799252069],[105.24697957101921,-5.5328426954842485],[105.24695089273899,-5.532811591565121],[105.24702017235677,-5.532823530352573],[105.24707751601659,-5.5328546223266244],[105.24719934883012,-5.5328665391964478],[105.24723038012939,-5.5328114751233102],[105.24734742543069,-5.5327994586814953],[105.24745017882333,-5.532885582815652],[105.24754097142073,-5.5329310219524359],[105.24777984458927,-5.5329189545618078],[105.2478204259798,-5.5328519188320229],[105.24796371596733,-5.5327632984181037],[105.24808794752516,-5.532799149378377],[105.24829578443553,-5.5328301782604967],[105.24836748081145,-5.5329091346483779],[105.24856569769776,-5.5327845881747066],[105.24861583610937,-5.5327223354441344],[105.24859429511554,-5.5326218163182261],[105.2485679905584,-5.5325548085724563],[105.24856557879855,-5.5324997584502853],[105.24864677631587,-5.5324494603378866],[105.24879728941704,-5.5324972677699975],[105.24891431259982,-5.5324325934278704],[105.24901028022515,-5.5322834024989902],[105.2490293494709,-5.5322776507396156],[105.2492005986777,-5.53222950611638],[105.24943497723785,-5.532219350753337],[105.24963800432846,-5.5321737883188575],[105.24985060758519,-5.5321784858562637],[105.25007270062179,-5.5320276000427953],[105.2501084940842,-5.5319366309143447],[105.25013709908916,-5.5317930072146169],[105.25014745636827,-5.5313170869654869],[105.25006434941321,-5.5310097186713847],[105.25001600748681,-5.5308878468622993],[105.2499193274399,-5.5306656206057596],[105.24981409128037,-5.5305146824981648],[105.24965162165898,-5.5304671975322321],[105.24953457186746,-5.5304672467715363],[105.24942469740876,-5.5304888347191081],[105.24931480691276,-5.5304721262127146],[105.24913800079457,-5.5303836399595525],[105.24909020235503,-5.5303286088931713],[105.24907346194493,-5.5302831388960954],[105.24893721400167,-5.5300725656416034],[105.24889180537588,-5.5300199270818098],[105.24879861137418,-5.5299433732790249],[105.24871974501383,-5.5298548458166579],[105.24873164888635,-5.5297590997184329],[105.24881282703308,-5.5296633245775411],[105.24884146925763,-5.5296082614300985],[105.24897046372644,-5.5296106008514698],[105.24901822507917,-5.5295770714234891],[105.24906836318672,-5.5295148186621645],[105.24907074895242,-5.5295076370777565],[105.24906355363322,-5.5294382277950263],[105.24902672040753,-5.5294097664631181],[105.24905393653216,-5.5292898331143761],[105.24908975202123,-5.5292515216394236],[105.24918766642031,-5.5291916423416865],[105.24927125521327,-5.5291485237395932],[105.24936678882432,-5.5291077936350348],[105.24943929208797,-5.5291581684589346],[105.24953164875075,-5.529191497807119],[105.24964153299595,-5.5291938451214264],[105.24978007139731,-5.5291698515526377],[105.2499353120711,-5.5291003738944937],[105.25017174259233,-5.5289638432077481],[105.25036278848734,-5.5288321186329199],[105.25039144159246,-5.5288033842151663],[105.25040581466658,-5.5286777233952762],[105.2503268829297,-5.5281166094326863],[105.25033617221834,-5.5280231175531185],[105.25033850668677,-5.5278938660796939],[105.25030740755886,-5.5277861704529414],[105.25026917432649,-5.5277550707147043],[105.25022771344231,-5.5277379797483945],[105.25015926824688,-5.5277000659061741],[105.25008995302591,-5.5276019604792737],[105.25005410958022,-5.5275732532468851],[105.24999436348378,-5.5275086531636362],[105.24995556243732,-5.5274301555358534],[105.2499123861046,-5.527387293232664],[105.24981753710517,-5.5273699029958152],[105.24972914099499,-5.5273412178548824],[105.24966702023471,-5.5273101281229629],[105.24963116579943,-5.5272550920623758],[105.24965641745314,-5.5271407379593711],[105.24962434750893,-5.5271132470488737],[105.24952368189389,-5.5270374185543574],[105.24947143908059,-5.5270024011089731],[105.24942086591966,-5.5270421564801495],[105.2493348546277,-5.5270038961638761],[105.24921779650703,-5.5269824035631245],[105.24913418099567,-5.5269608969061323],[105.24897410626374,-5.5268939452760151],[105.24881643031392,-5.5268509278749889],[105.24869459572244,-5.5268318306985407],[105.24863249802797,-5.5268557919865202],[105.24862059317826,-5.5269491445627636],[105.24856327198512,-5.5269707103159362],[105.24844381615588,-5.5269276768128748],[105.24841034263204,-5.5268534914513907],[105.24834822398083,-5.5268271886306479],[105.2482478752579,-5.5267769665091464],[105.24818816630579,-5.5268009267525713],[105.24807589075056,-5.5267913995639901],[105.24798039524484,-5.5269230835025951],[105.24800429974795,-5.5269637634947912],[105.24801864125618,-5.526985299256296],[105.24791114119148,-5.5269709829868816],[105.24751461836593,-5.526997477241764],[105.24727574060552,-5.5269927897273874],[105.24721600875654,-5.5269616987362724],[105.24720641699764,-5.5268731421862185],[105.2472277970902,-5.5268211536870808],[105.24728753842868,-5.5266409361663591],[105.24726601480063,-5.5265811069247093],[105.24723733185857,-5.5265380353608862],[105.247263586332,-5.5264853668064688],[105.24728506428278,-5.5264350937686686],[105.24729455873728,-5.5262890845912693],[105.24731363898769,-5.526217270796792],[105.24732556488675,-5.5261741823207444],[105.24730163266202,-5.5260664835168427],[105.24727294974372,-5.5260234119530196],[105.24726815337402,-5.5259779369129092],[105.24726334608539,-5.5259061330662007],[105.24725377221125,-5.525860660015212],[105.24722747706761,-5.5258151939257232],[105.24720834818658,-5.5257697248516138],[105.24718921633132,-5.5257170751930289],[105.24716291028443,-5.525645280292963],[105.24712944592477,-5.5255926365969685],[105.24712226181083,-5.5255495560764984],[105.24711744660925,-5.5254586040030631],[105.24709354818168,-5.5254322851353663],[105.24704337745737,-5.525415551309834],[105.24701944730282,-5.5253126395441541],[105.24698598198393,-5.5252576023100914],[105.24697401443575,-5.5252001626056426],[105.24705521509708,-5.5251594388491867],[105.2471173166565,-5.5251450518414913],[105.24721286071701,-5.5251306509077267],[105.2473083402449,-5.5249606706428267],[105.24733697247717,-5.5248816722836978],[105.24733214931058,-5.5247715719875146],[105.24730342675116,-5.5246327593019942],[105.24732013706944,-5.5246064235317931],[105.24724126471506,-5.5245011411195151],[105.24721256203679,-5.5244101989869137],[105.24720535114625,-5.5243024932090634],[105.2471790044932,-5.5241325636543479]]]},"properties":{"FID":0,"OBJECTID":648,"LEFT_FID":0,"RIGHT_FID":0,"Shape_Leng":0.112414779839}}]}