{
"type": "FeatureCollection",
"name": "garispantai_koreksiMSL_RTK",
"crs": { "type": "name", "properties": { "name": "urn:ogc:def:crs:EPSG::32748" } },
"features": [
{ "type": "Feature", "properties": { "Part_ID": 1, "begin": 1, "end": 30 }, "geometry": { "type": "MultiLineString", "coordinates": [ [ [ 527971.626607299782336, 9385686.2627506069839 ], [ 527979.583837363403291, 9385670.508898671716452 ], [ 527987.229635535273701, 9385661.500326413661242 ], [ 527997.216411836445332, 9385653.98574985191226 ], [ 528007.155270140618086, 9385646.414589714258909 ], [ 528017.046210447791964, 9385638.786846002563834 ], [ 528026.746676195994951, 9385630.913846909999847 ], [ 528036.256667385227047, 9385622.795592438429594 ], [ 528044.282355395029299, 9385613.399964097887278 ], [ 528050.823740225518122, 9385602.726961888372898 ], [ 528058.541828920831904, 9385596.196597132831812 ], [ 528067.436621481319889, 9385593.808869829401374 ], [ 528070.96502028114628, 9385587.154225248843431 ], [ 528069.127025320311077, 9385576.232663387432694 ], [ 528068.216629282920621, 9385564.517011621966958 ], [ 528068.233832168974914, 9385552.007269952446222 ], [ 528067.643007904523984, 9385540.208795968443155 ], [ 528066.444156489684246, 9385529.121589675545692 ], [ 528066.130897908005863, 9385517.327969912439585 ], [ 528066.703232159488834, 9385504.827936686575413 ], [ 528067.44277245295234, 9385492.371110251173377 ], [ 528068.349518788396381, 9385479.957490611821413 ], [ 528069.745159820420668, 9385467.587275356054306 ], [ 528071.629695548908785, 9385455.260464483872056 ], [ 528074.669429748784751, 9385443.292549593374133 ], [ 528078.864362419815734, 9385431.683530684560537 ], [ 528083.720846761250868, 9385420.21641387231648 ], [ 528089.238882773090154, 9385408.89119915664196 ], [ 528093.201047561364248, 9385397.638723272830248 ], [ 528095.607341126073152, 9385386.458986217156053 ], [ 528100.916350248618983, 9385376.161234781146049 ], [ 528109.12807492876891, 9385366.745468966662884 ], [ 528117.822720316238701, 9385357.900982519611716 ], [ 528127.000286411028355, 9385349.627775439992547 ], [ 528137.640340948244557, 9385344.185645820572972 ], [ 528149.742883927887306, 9385341.574593661352992 ], [ 528158.571653588092886, 9385335.435614839196205 ], [ 528164.126649928744882, 9385325.768709354102612 ], [ 528163.552454359363765, 9385316.78610048443079 ], [ 528156.849066879600286, 9385308.48778823018074 ], [ 528148.826951266266406, 9385308.504003077745438 ], [ 528139.486107519362122, 9385316.834745028987527 ], [ 528129.497118522645906, 9385324.255593333393335 ], [ 528118.859984276467003, 9385330.766547992825508 ], [ 528108.096357730217278, 9385337.090807382017374 ], [ 528097.206238883780316, 9385343.228371504694223 ], [ 528086.087436781032011, 9385348.853545134887099 ], [ 528074.739951421506703, 9385353.966328268870711 ], [ 528063.265331338741817, 9385358.849168164655566 ], [ 528051.663576532504521, 9385363.502064824104309 ], [ 528040.717859162949026, 9385364.316671557724476 ], [ 528030.42817923007533, 9385361.292988363653421 ], [ 528020.992994909523986, 9385355.356653625145555 ], [ 528012.412306201178581, 9385346.50766734033823 ], [ 528004.790699445758946, 9385337.018598122522235 ], [ 527998.128174643381499, 9385326.889445975422859 ], [ 527993.9494500689907, 9385316.276121240109205 ], [ 527991.407063549268059, 9385299.629875261336565 ] ] ] } },
{ "type": "Feature", "properties": { "Part_ID": 2, "begin": 1, "end": 27 }, "geometry": { "type": "MultiLineString", "coordinates": [ [ [ 527964.773262305534445, 9385691.633956559002399 ], [ 527952.202575402334332, 9385702.872083593159914 ], [ 527946.02663769479841, 9385710.332951435819268 ], [ 527942.055220215115696, 9385717.762602431699634 ], [ 527935.679642180562951, 9385722.088181031867862 ], [ 527926.899903591023758, 9385723.309687238186598 ], [ 527921.745999075705186, 9385729.08159875869751 ], [ 527920.217928634840064, 9385739.403915593400598 ], [ 527918.183263945858926, 9385750.593083817511797 ], [ 527915.642005008645356, 9385762.649103432893753 ], [ 527914.993036125786602, 9385774.65836039558053 ], [ 527916.236357297049835, 9385786.620854709297419 ], [ 527915.931554041337222, 9385798.933853631839156 ], [ 527914.078626358648762, 9385811.597357166931033 ], [ 527913.223242581123486, 9385823.940094534307718 ], [ 527913.365402709227055, 9385835.962065735831857 ], [ 527913.93640048452653, 9385847.935148542746902 ], [ 527914.936235907138325, 9385859.859342955052853 ], [ 527915.927195451920852, 9385872.330030625686049 ], [ 527916.909279118990526, 9385885.347211549058557 ], [ 527919.042919539497234, 9385897.879988819360733 ], [ 527922.328116713557392, 9385909.928362432867289 ], [ 527925.724961795844138, 9385921.434804879128933 ], [ 527929.233454786706716, 9385932.399316161870956 ], [ 527934.13186654006131, 9385943.15525702945888 ], [ 527940.420197056257166, 9385953.702627485617995 ], [ 527946.934911440708674, 9385964.622188111767173 ], [ 527953.676009693648666, 9385975.913938906043768 ], [ 527959.648016329505481, 9385986.879693567752838 ], [ 527964.850931348395534, 9385997.519452095031738 ], [ 527970.793510336428881, 9386008.218142474070191 ], [ 527977.475753293605521, 9386018.975764703005552 ], [ 527984.237042987835594, 9386029.41560835018754 ], [ 527991.077379419119097, 9386039.53767341375351 ], [ 527997.197860301239416, 9386049.778824836015701 ], [ 528002.598485634080134, 9386060.139062620699406 ], [ 528008.370803505880758, 9386069.360037667676806 ], [ 528014.514813916524872, 9386077.441749976947904 ], [ 528021.427553786197677, 9386086.711182538419962 ], [ 528029.109023115015589, 9386097.168335352092981 ], [ 528036.124915837892331, 9386107.805606953799725 ], [ 528042.475231954595074, 9386118.622997347265482 ], [ 528048.117334966547787, 9386129.723393902182579 ], [ 528053.051224873750471, 9386141.106796618551016 ], [ 528061.25443806592375, 9386147.892265643924475 ], [ 528072.726974543300457, 9386150.079800974577665 ], [ 528081.235886894515716, 9386157.024677308276296 ], [ 528086.78117511968594, 9386168.726894648745656 ], [ 528091.966351773124188, 9386180.229122713208199 ], [ 528096.791416854597628, 9386191.531361501663923 ], [ 528101.696601616684347, 9386202.116965934634209 ], [ 528109.174558280734345, 9386216.920421045273542 ] ] ] } },
{ "type": "Feature", "properties": { "Part_ID": 3, "begin": 1, "end": 4 }, "geometry": { "type": "MultiLineString", "coordinates": [ [ [ 528125.04266054823529, 9386246.658286605030298 ], [ 528122.750404863152653, 9386249.588711712509394 ], [ 528119.157430442748591, 9386255.609962543472648 ], [ 528113.499652058584616, 9386265.698847467079759 ], [ 528111.373548171017319, 9386277.496830241754651 ], [ 528113.481904084561393, 9386297.757451174780726 ] ] ] } }
]
}
