{"type":"FeatureCollection","features":[{"type":"Feature","id":0,"geometry":{"type":"LineString","coordinates":[[105.25287248990213,-5.5611594185022],[105.2527411428407,-5.5611861324383085]]},"properties":{"FID":0,"LEFT_FID":0,"RIGHT_FID":0,"Part_ID":0,"begin":0,"end":0}},{"type":"Feature","id":1,"geometry":{"type":"LineString","coordinates":[[105.24643227170623,-5.5435458912139666],[105.24639582202241,-5.5435707959348406],[105.24650776875308,-5.5441260966773598],[105.24669688328601,-5.5443835271549347],[105.24665479130277,-5.5445917708897241],[105.24676091672126,-5.5447396466114469],[105.24685697390424,-5.5448027956606438],[105.24692731948841,-5.5450770644872023],[105.24712994518893,-5.545149713598903],[105.24731316368656,-5.5449641156403118],[105.24742165725894,-5.5447163928861869],[105.24761535523425,-5.5446428884046668],[105.24797227438506,-5.5444477726020978],[105.24827446593292,-5.5445096385882948],[105.24837218144222,-5.544626512406694],[105.24836855999894,-5.5447179024441766],[105.24882127328982,-5.5452536210758581],[105.24899750954563,-5.5455265397205267],[105.24971958857384,-5.546331599416817],[105.24983635201545,-5.5467004040615961],[105.25032938915723,-5.5466808617017023],[105.25052464552863,-5.5467841811181984],[105.25082349546079,-5.5469252200171582],[105.25187837990529,-5.5475062820778476],[105.25205496980732,-5.5474992831798318],[105.25231914873882,-5.5476390733526273],[105.25241110762539,-5.5468705885872964],[105.25255443288586,-5.5465997315059781],[105.2528654027272,-5.5458426634703528],[105.2531297598527,-5.5451637895474732],[105.25322301818176,-5.5449875505500472],[105.25332708052895,-5.54465886277751],[105.25375370626989,-5.5444575204077182],[105.25392212667856,-5.5442757478123212],[105.254450901241,-5.5440904154560826],[105.25494756256728,-5.544070729170528],[105.25546592513791,-5.5441791819347941],[105.25565169064191,-5.544171818425184],[105.2567264477899,-5.544265474263284],[105.257295960161,-5.5443646417679702],[105.25760517822175,-5.5443523847866913],[105.2585733097759,-5.5444967490532804],[105.25919706977527,-5.5437376921022974],[105.25968746142667,-5.5439095722089746],[105.26005021434128,-5.5439959796780727],[105.26069003095876,-5.5442587892602546],[105.26099173198912,-5.5442707474244912],[105.26138481346192,-5.5442551664463622],[105.26166375505176,-5.5446605377977107],[105.26147020933934,-5.5451918111834289],[105.2609485296253,-5.5456163712488546],[105.26067560823918,-5.5457027787179527],[105.26058920351159,-5.545796034305738],[105.26004837483441,-5.5459672619496132],[105.25993002409865,-5.5463410779479432],[105.25960270978788,-5.5463281040799188],[105.25933156211397,-5.5465146865330439],[105.25905864072786,-5.5466909255304131],[105.25870274141499,-5.5469638441750817],[105.25833549253781,-5.5470513221766282],[105.25816375224451,-5.5477723279308293],[105.25778922210077,-5.5480141805696235],[105.25781072870313,-5.5485567719931623],[105.25769299204978,-5.5488062472077786],[105.25735184168798,-5.5490265452691574],[105.25722381914943,-5.5494309146239971],[105.25654678473319,-5.5500181175117973],[105.2563636948754,-5.5501045222393373],[105.25618745861942,-5.5501977805686806],[105.2559128265745,-5.550327390401435],[105.25557551697096,-5.5505058773802034],[105.2551519260046,-5.5503574091769678],[105.25480433325708,-5.5505214542460521],[105.25464359710685,-5.5508620343884445],[105.25403126343224,-5.55118605348747],[105.25393995700864,-5.5511824347856873],[105.25376923653141,-5.5511892006613834],[105.25357549343539,-5.5510096883837718],[105.25332262020493,-5.5507367697390464],[105.25321959138091,-5.5508231744667],[105.25317638901726,-5.5508698036313149],[105.25312202053794,-5.551022653201187],[105.25316031161952,-5.5511853965178943],[105.25337278582805,-5.5513842733562342],[105.25348827175839,-5.5516358992311439],[105.25374766139316,-5.5518676606267263],[105.25379121183033,-5.552030267682472]]},"properties":{"FID":1,"LEFT_FID":10,"RIGHT_FID":9,"Part_ID":0,"begin":0,"end":0}},{"type":"Feature","id":2,"geometry":{"type":"LineString","coordinates":[[105.25379121183033,-5.5520302676824826],[105.25373795071658,-5.5520560909507708]]},"properties":{"FID":2,"LEFT_FID":0,"RIGHT_FID":0,"Part_ID":0,"begin":0,"end":0}},{"type":"Feature","id":3,"geometry":{"type":"LineString","coordinates":[[105.25287248990215,-5.5611594185022515],[105.25300334724932,-5.5613359970911915],[105.25295433780462,-5.561607198884758],[105.25263101187306,-5.5620022609583089],[105.25270988353856,-5.5625612531409843],[105.25180065457903,-5.5632211096899482],[105.25156853226264,-5.5633537800242152],[105.25146297534957,-5.5635464146089362],[105.25110292016643,-5.5638961912601417],[105.2508094842018,-5.5639010560555562],[105.25046446235604,-5.564179452993244],[105.25047419901568,-5.564564551158071],[105.25032883307864,-5.5647053138755496],[105.2500453155904,-5.5647502606317971],[105.2496658306685,-5.5652419048033153],[105.24927449922978,-5.565012487657782],[105.24850514953988,-5.564973353591995],[105.24829234246516,-5.564850378045719],[105.24818739737412,-5.5646622850587733],[105.24805160833421,-5.5640645714873358],[105.24774492336456,-5.5638471176706616],[105.24711865768842,-5.5636094649189545],[105.2469364396087,-5.563397960028567],[105.24683992444801,-5.5633148121325462],[105.24654200660581,-5.5628999142747944],[105.24579409224054,-5.5624826258807047],[105.24528344956678,-5.562523657023462],[105.24488466863886,-5.5623457128499467],[105.24466066238159,-5.562524915295171],[105.24465633045793,-5.5625738311358077]]},"properties":{"FID":3,"LEFT_FID":10,"RIGHT_FID":9,"Part_ID":0,"begin":0,"end":0}},{"type":"Feature","id":4,"geometry":{"type":"LineString","coordinates":[[105.25255239828705,-5.5576605045377185],[105.25248730704955,-5.5575945746621302]]},"properties":{"FID":4,"LEFT_FID":0,"RIGHT_FID":0,"Part_ID":1,"begin":1,"end":1}},{"type":"Feature","id":5,"geometry":{"type":"LineString","coordinates":[[105.25248735635648,-5.5575946066443356],[105.25246608630506,-5.5575589707670519],[105.25244393283806,-5.5575192037837198],[105.25241944419847,-5.5574889124527269],[105.2523811334014,-5.5574576838535146],[105.25234141688446,-5.5574793310389667],[105.25233527900569,-5.5574669485890151],[105.25233220698081,-5.5574535087373382],[105.25232831902872,-5.557436684941],[105.25232648725043,-5.5574063358071069],[105.25231255544851,-5.557377072824436],[105.25230243942953,-5.5573509019721516],[105.25229208353548,-5.5573190404205688],[105.25226194631766,-5.5572979102683355],[105.25223359560977,-5.5573161389631371],[105.25220255419848,-5.5573276732201817],[105.25216921403913,-5.5573415126569987],[105.25213006522596,-5.5573284962449527],[105.25208290947353,-5.5573018260648457],[105.25210231200543,-5.5572528948469166],[105.25209315390735,-5.5572023769072487],[105.25208212125666,-5.5571355251566361],[105.25206055346069,-5.5570960667612974],[105.25204843612144,-5.5570581140640964],[105.25204301864952,-5.5570098055350465],[105.25203410086201,-5.5569580013088702],[105.25203607095085,-5.5569100120356811],[105.25203940878508,-5.5568573769985523],[105.25205235224877,-5.5568020728333067],[105.25205678637676,-5.5567539104161368],[105.25204954652128,-5.5566705155462204],[105.25204098666848,-5.5566334596534164],[105.25203297523529,-5.5565749169522869],[105.25202552902027,-5.5565210179033331],[105.25202440963938,-5.5564711583698028],[105.25202601524789,-5.5564253738178762],[105.25202258804941,-5.5563822484088661],[105.25202364327933,-5.5563321090739946],[105.25203098528635,-5.5562644666116503],[105.2520297825962,-5.556166821934319],[105.25202814404595,-5.5560957360281629],[105.25204967224552,-5.5560139103364206],[105.25205303021215,-5.5558725286694619],[105.25208473799282,-5.5556822434053776],[105.25212928578162,-5.5555626471033106],[105.25219012659019,-5.5554722078441836],[105.2521729439717,-5.5553993985146848],[105.25222247071126,-5.5553269153364555],[105.25225613949371,-5.5552481514720151],[105.2522921964358,-5.5552031234168977],[105.25233137093809,-5.55513881188529],[105.25239394280752,-5.5550326016954168],[105.25244689071016,-5.5549260379725292],[105.25249241400384,-5.5548351512919192],[105.25255379466491,-5.5547266170804734],[105.25261638606237,-5.5546258905765145],[105.2526920287424,-5.554529269176304],[105.25275687577813,-5.554450716950635],[105.25275945247486,-5.5544072742017958],[105.25274760891027,-5.5543832130311843],[105.25275241045728,-5.554365649249827],[105.25277137793331,-5.5543557421471377],[105.25280038965066,-5.5543156791524524],[105.25284212435434,-5.5542502894233587],[105.25286315472061,-5.5542190943129821],[105.25289463500297,-5.5541817964152393],[105.2529222020292,-5.5541566984924513],[105.2529326635058,-5.5541652763071676],[105.2529508872957,-5.5541470473966177],[105.25295728478359,-5.5541266843683816],[105.25295832647321,-5.5541050397929359],[105.25296891209427,-5.5541073272244343],[105.25297229613298,-5.5540932582440359],[105.25298023255822,-5.5540651701112704],[105.25299469691659,-5.5540593888887368],[105.25301473370661,-5.554028839056028],[105.25303684120449,-5.5539930069507157],[105.2530631933399,-5.5539561126229788],[105.25310827426172,-5.5538905892455972],[105.25315365124902,-5.553813232840076],[105.25320072504392,-5.5537401669203037],[105.25323036021612,-5.5536655047398087],[105.2532503978362,-5.553611646618883],[105.2532857089975,-5.5535201093749347],[105.25331473712399,-5.5534872664007615],[105.25335558329594,-5.5534667835288447],[105.2533934288457,-5.5534667039213907],[105.25340951503235,-5.5534669660265612],[105.25348093092616,-5.5534749135734192],[105.25350574880109,-5.5534703055888741],[105.25353546025678,-5.5534172867926834],[105.25358279181367,-5.553319655603925],[105.25362522166029,-5.5532270995033404],[105.25365896668733,-5.5531487419774441],[105.25369477918237,-5.5530574033649467],[105.25373166867504,-5.5529770265839362],[105.25377666379939,-5.5528791064859693],[105.25376651747271,-5.5528609123865103],[105.25376757056162,-5.5528587037428867],[105.25380229530964,-5.5528801272586881],[105.25380852959543,-5.5528711865567235],[105.25384357030524,-5.5528902578401729],[105.2538483579158,-5.5528821910846622],[105.25385658892807,-5.5528597216017541],[105.25381653122152,-5.5528493699090902],[105.25382036275589,-5.5528462959971199]]},"properties":{"FID":5,"LEFT_FID":0,"RIGHT_FID":0,"Part_ID":1,"begin":1,"end":1}},{"type":"Feature","id":6,"geometry":{"type":"MultiLineString","coordinates":[[[105.25255243931063,-5.5576603635297275],[105.2525657006843,-5.5577074066320611]],[[105.2525657006843,-5.5577074066320611],[105.25257333797562,-5.5577481119466698]],[[105.25257333797562,-5.5577481119466698],[105.25259698562164,-5.5577998892391607]],[[105.25259698562164,-5.5577998892391607],[105.25259770911771,-5.5578173960068735]],[[105.25259770911771,-5.5578173960068735],[105.2526567890976,-5.5578558867812449]],[[105.2526567890976,-5.5578558867812449],[105.2527111400146,-5.5578931869382435]],[[105.2527111400146,-5.5578931869382435],[105.25276618884746,-5.5579370239331283]],[[105.25276618884746,-5.5579370239331283],[105.25281404538039,-5.5579753959196161]],[[105.25281404538039,-5.5579753959196161],[105.2528783724661,-5.5580228353281624]],[[105.2528783724661,-5.5580228353281624],[105.2529219415633,-5.5580622310488534]],[[105.2529219415633,-5.5580622310488534],[105.25299430847585,-5.5581134474652751]],[[105.25299430847585,-5.5581134474652751],[105.25306972673472,-5.558175013303944]],[[105.25306972673472,-5.558175013303944],[105.2531296267872,-5.5582258928099488]],[[105.2531296267872,-5.5582258928099488],[105.25318700366529,-5.5582781196278246]],[[105.25318700366529,-5.5582781196278246],[105.25322720406291,-5.5583402971848486]],[[105.25322720406291,-5.5583402971848486],[105.25327052800422,-5.5584138140953714]],[[105.25327052800422,-5.5584138140953714],[105.25331202083166,-5.5584908438244724]],[[105.25331202083166,-5.5584908438244724],[105.25333907438184,-5.5585231517909399]],[[105.25333907438184,-5.5585231517909399],[105.25338504110464,-5.5585427334208601]],[[105.25338504110464,-5.5585427334208601],[105.25341923004909,-5.5584881985416379]],[[105.25341923004909,-5.5584881985416379],[105.25345795678375,-5.5584902051655369]],[[105.25345795678375,-5.5584902051655369],[105.25344798252725,-5.558526865013782]],[[105.25344798252725,-5.558526865013782],[105.25342060953331,-5.5585597148769992]],[[105.25342060953331,-5.5585597148769992],[105.25339037541453,-5.5586008703388687]],[[105.25339037541453,-5.5586008703388687],[105.25342084684206,-5.5586644675445642]],[[105.25342084684206,-5.5586644675445642],[105.25342550545329,-5.5587104989412603]],[[105.25342550545329,-5.5587104989412603],[105.25342501544094,-5.5587858568644606]],[[105.25342501544094,-5.5587858568644606],[105.25342668821391,-5.5588675482525405]],[[105.25342668821391,-5.5588675482525405],[105.25342519946662,-5.558937988817501]],[[105.25342519946662,-5.558937988817501],[105.25342534004561,-5.5589890797429709]],[[105.25342534004561,-5.5589890797429709],[105.2533954594109,-5.5589946032032298]],[[105.2533954594109,-5.5589946032032298],[105.25340295365426,-5.5591251443534606]],[[105.25340295365426,-5.5591251443534606],[105.25341257607087,-5.5592247583726726]],[[105.25341257607087,-5.5592247583726726],[105.25341463259629,-5.5593293790957947]],[[105.25341463259629,-5.5593293790957947],[105.25341355870486,-5.5594285956085372]],[[105.25341355870486,-5.5594285956085372],[105.25342206976856,-5.5595172524535803]],[[105.25342206976856,-5.5595172524535803],[105.2534387763139,-5.5596526042737899]],[[105.2534387763139,-5.5596526042737899],[105.25344841672378,-5.5597161417447811]],[[105.25344841672378,-5.5597161417447811],[105.2534638431368,-5.5598012397717129]],[[105.2534638431368,-5.5598012397717129],[105.25348496365683,-5.5598938353461467]],[[105.25348496365683,-5.5598938353461467],[105.25351155399008,-5.5599636043776934]],[[105.25351155399008,-5.5599636043776934],[105.2535466456828,-5.5600260532437513]],[[105.2535466456828,-5.5600260532437513],[105.25359111180988,-5.560108736658731]],[[105.25359111180988,-5.560108736658731],[105.25363250061662,-5.5601915151252816]],[[105.25363250061662,-5.5601915151252816],[105.25365031588201,-5.5602882318897926]],[[105.25365031588201,-5.5602882318897926],[105.25363020068167,-5.5603607210584336]],[[105.25363020068167,-5.5603607210584336],[105.2536622280065,-5.5603965430848765]],[[105.2536622280065,-5.5603965430848765],[105.25369305642181,-5.5604334238158444]],[[105.25369305642181,-5.5604334238158444],[105.25372689062606,-5.5604719964668625]],[[105.25372689062606,-5.5604719964668625],[105.2537728933962,-5.5605254430787303]],[[105.2537728933962,-5.5605254430787303],[105.25381288844241,-5.5605726333666219]],[[105.25381288844241,-5.5605726333666219],[105.25382747101384,-5.5605876537157304]],[[105.25382747101384,-5.5605876537157304],[105.25385394964756,-5.5606166445260286]],[[105.25385394964756,-5.5606166445260286],[105.25387965942956,-5.5606459275290643]],[[105.25387965942956,-5.5606459275290643],[105.25391616409577,-5.5606802411475247]],[[105.25391616409577,-5.5606802411475247],[105.25394110600885,-5.5607082116287243]],[[105.25394110600885,-5.5607082116287243],[105.25398133790304,-5.5607325586872571]],[[105.25398133790304,-5.5607325586872571],[105.25402112047965,-5.5607562915609225]],[[105.25402112047965,-5.5607562915609225],[105.25405890354664,-5.5607614903112133]],[[105.25405890354664,-5.5607614903112133],[105.25409494993744,-5.5607659784395729]],[[105.25409494993744,-5.5607659784395729],[105.25412860526151,-5.5607723563643461]],[[105.25412860526151,-5.5607723563643461],[105.25415611574797,-5.5607767504547381]],[[105.25415611574797,-5.5607767504547381],[105.25421376982457,-5.5607885337756269]],[[105.25421376982457,-5.5607885337756269],[105.25425923761766,-5.560806435294908]],[[105.25425923761766,-5.560806435294908],[105.2543034526133,-5.5608367354226278]],[[105.2543034526133,-5.5608367354226278],[105.25432068359846,-5.5609049837617279]],[[105.25432068359846,-5.5609049837617279],[105.25431858121823,-5.5609561654090918]],[[105.25431858121823,-5.5609561654090918],[105.25431006082317,-5.5610005847358961]],[[105.25431006082317,-5.5610005847358961],[105.25428889211814,-5.5610519153158533]],[[105.25428889211814,-5.5610519153158533],[105.25428033162783,-5.5610918376502658]],[[105.25428033162783,-5.5610918376502658],[105.25424564495374,-5.5611235861857908]],[[105.25424564495374,-5.5611235861857908],[105.25421383254015,-5.5611227391276365]],[[105.25421383254015,-5.5611227391276365],[105.25418938054156,-5.5611115072599961]],[[105.25418938054156,-5.5611115072599961],[105.2541446517186,-5.5610712755902005]],[[105.2541446517186,-5.5610712755902005],[105.25407605293522,-5.5610025174173217]],[[105.25407605293522,-5.5610025174173217],[105.25401145756041,-5.5609515856643883]],[[105.25401145756041,-5.5609515856643883],[105.25398282083107,-5.5609338496278387]],[[105.25398282083107,-5.5609338496278387],[105.25395035687771,-5.5609139542788446]],[[105.25395035687771,-5.5609139542788446],[105.25392147305978,-5.5608978822725215]],[[105.25392147305978,-5.5608978822725215],[105.25387484346055,-5.5608689316791331]],[[105.25387484346055,-5.5608689316791331],[105.25377198395272,-5.560810798619217]],[[105.25377198395272,-5.560810798619217],[105.25357614505492,-5.5607001059595467]],[[105.25357614505492,-5.5607001059595467],[105.25354215327847,-5.5606877358795845]],[[105.25354215327847,-5.5606877358795845],[105.25351735086031,-5.5606757929587962]],[[105.25351735086031,-5.5606757929587962],[105.25315625173688,-5.5605330595009317]],[[105.25315625173688,-5.5605330595009317],[105.2531135052316,-5.5605741311049579]],[[105.2531135052316,-5.5605741311049579],[105.2530982581339,-5.5605834474629017]],[[105.2530982581339,-5.5605834474629017],[105.2530557874156,-5.5605940557064137]],[[105.2530557874156,-5.5605940557064137],[105.25302220250789,-5.5606264737951276]],[[105.25302220250789,-5.5606264737951276],[105.25297001695074,-5.560672215895794]],[[105.25297001695074,-5.560672215895794],[105.25287892590728,-5.5607793099244924]],[[105.25287892590728,-5.5607793099244924],[105.25284965698243,-5.5608309440864288]],[[105.25284965698243,-5.5608309440864288],[105.25281411010592,-5.5608783303256821]],[[105.25281411010592,-5.5608783303256821],[105.25276362575013,-5.560952312307708]],[[105.25276362575013,-5.560952312307708],[105.25274843475134,-5.5609959637231645]],[[105.25274843475134,-5.5609959637231645],[105.25272382777348,-5.5610702616000722]],[[105.25272382777348,-5.5610702616000722],[105.2527242053759,-5.5611097354354051]],[[105.2527242053759,-5.5611097354354051],[105.25273189323991,-5.5611564310582313]],[[105.25273189323991,-5.5611564310582313],[105.25274114284078,-5.561186132438344]]]},"properties":{"FID":6,"LEFT_FID":0,"RIGHT_FID":0,"Part_ID":1,"begin":1,"end":1}},{"type":"Feature","id":7,"geometry":{"type":"MultiLineString","coordinates":[[[105.25255243931063,-5.5576603635297275],[105.2525657006843,-5.5577074066320611]],[[105.2525657006843,-5.5577074066320611],[105.25257333797562,-5.5577481119466698]],[[105.25257333797562,-5.5577481119466698],[105.25259698562164,-5.5577998892391607]],[[105.25259698562164,-5.5577998892391607],[105.25259770911771,-5.5578173960068735]],[[105.25259770911771,-5.5578173960068735],[105.2526567890976,-5.5578558867812449]],[[105.2526567890976,-5.5578558867812449],[105.2527111400146,-5.5578931869382435]],[[105.2527111400146,-5.5578931869382435],[105.25276618884746,-5.5579370239331283]],[[105.25276618884746,-5.5579370239331283],[105.25281404538039,-5.5579753959196161]],[[105.25281404538039,-5.5579753959196161],[105.2528783724661,-5.5580228353281624]],[[105.2528783724661,-5.5580228353281624],[105.2529219415633,-5.5580622310488534]],[[105.2529219415633,-5.5580622310488534],[105.25299430847585,-5.5581134474652751]],[[105.25299430847585,-5.5581134474652751],[105.25306972673472,-5.558175013303944]],[[105.25306972673472,-5.558175013303944],[105.2531296267872,-5.5582258928099488]],[[105.2531296267872,-5.5582258928099488],[105.25318700366529,-5.5582781196278246]],[[105.25318700366529,-5.5582781196278246],[105.25322720406291,-5.5583402971848486]],[[105.25322720406291,-5.5583402971848486],[105.25327052800422,-5.5584138140953714]],[[105.25327052800422,-5.5584138140953714],[105.25331202083166,-5.5584908438244724]],[[105.25331202083166,-5.5584908438244724],[105.25333907438184,-5.5585231517909399]],[[105.25333907438184,-5.5585231517909399],[105.25338504110464,-5.5585427334208601]],[[105.25338504110464,-5.5585427334208601],[105.25341923004909,-5.5584881985416379]],[[105.25341923004909,-5.5584881985416379],[105.25345795678375,-5.5584902051655369]],[[105.25345795678375,-5.5584902051655369],[105.25344798252725,-5.558526865013782]],[[105.25344798252725,-5.558526865013782],[105.25342060953331,-5.5585597148769992]],[[105.25342060953331,-5.5585597148769992],[105.25339037541453,-5.5586008703388687]],[[105.25339037541453,-5.5586008703388687],[105.25342084684206,-5.5586644675445642]],[[105.25342084684206,-5.5586644675445642],[105.25342550545329,-5.5587104989412603]],[[105.25342550545329,-5.5587104989412603],[105.25342501544094,-5.5587858568644606]],[[105.25342501544094,-5.5587858568644606],[105.25342668821391,-5.5588675482525405]],[[105.25342668821391,-5.5588675482525405],[105.25342519946662,-5.558937988817501]],[[105.25342519946662,-5.558937988817501],[105.25342534004561,-5.5589890797429709]],[[105.25342534004561,-5.5589890797429709],[105.2533954594109,-5.5589946032032298]],[[105.2533954594109,-5.5589946032032298],[105.25340295365426,-5.5591251443534606]],[[105.25340295365426,-5.5591251443534606],[105.25341257607087,-5.5592247583726726]],[[105.25341257607087,-5.5592247583726726],[105.25341463259629,-5.5593293790957947]],[[105.25341463259629,-5.5593293790957947],[105.25341355870486,-5.5594285956085372]],[[105.25341355870486,-5.5594285956085372],[105.25342206976856,-5.5595172524535803]],[[105.25342206976856,-5.5595172524535803],[105.2534387763139,-5.5596526042737899]],[[105.2534387763139,-5.5596526042737899],[105.25344841672378,-5.5597161417447811]],[[105.25344841672378,-5.5597161417447811],[105.2534638431368,-5.5598012397717129]],[[105.2534638431368,-5.5598012397717129],[105.25348496365683,-5.5598938353461467]],[[105.25348496365683,-5.5598938353461467],[105.25351155399008,-5.5599636043776934]],[[105.25351155399008,-5.5599636043776934],[105.2535466456828,-5.5600260532437513]],[[105.2535466456828,-5.5600260532437513],[105.25359111180988,-5.560108736658731]],[[105.25359111180988,-5.560108736658731],[105.25363250061662,-5.5601915151252816]],[[105.25363250061662,-5.5601915151252816],[105.25365031588201,-5.5602882318897926]],[[105.25365031588201,-5.5602882318897926],[105.25363020068167,-5.5603607210584336]],[[105.25363020068167,-5.5603607210584336],[105.2536622280065,-5.5603965430848765]],[[105.2536622280065,-5.5603965430848765],[105.25369305642181,-5.5604334238158444]],[[105.25369305642181,-5.5604334238158444],[105.25372689062606,-5.5604719964668625]],[[105.25372689062606,-5.5604719964668625],[105.2537728933962,-5.5605254430787303]],[[105.2537728933962,-5.5605254430787303],[105.25381288844241,-5.5605726333666219]],[[105.25381288844241,-5.5605726333666219],[105.25382747101384,-5.5605876537157304]],[[105.25382747101384,-5.5605876537157304],[105.25385394964756,-5.5606166445260286]],[[105.25385394964756,-5.5606166445260286],[105.25387965942956,-5.5606459275290643]],[[105.25387965942956,-5.5606459275290643],[105.25391616409577,-5.5606802411475247]],[[105.25391616409577,-5.5606802411475247],[105.25394110600885,-5.5607082116287243]],[[105.25394110600885,-5.5607082116287243],[105.25398133790304,-5.5607325586872571]],[[105.25398133790304,-5.5607325586872571],[105.25402112047965,-5.5607562915609225]],[[105.25402112047965,-5.5607562915609225],[105.25405890354664,-5.5607614903112133]],[[105.25405890354664,-5.5607614903112133],[105.25409494993744,-5.5607659784395729]],[[105.25409494993744,-5.5607659784395729],[105.25412860526151,-5.5607723563643461]],[[105.25412860526151,-5.5607723563643461],[105.25415611574797,-5.5607767504547381]],[[105.25415611574797,-5.5607767504547381],[105.25421376982457,-5.5607885337756269]],[[105.25421376982457,-5.5607885337756269],[105.25425923761766,-5.560806435294908]],[[105.25425923761766,-5.560806435294908],[105.2543034526133,-5.5608367354226278]],[[105.2543034526133,-5.5608367354226278],[105.25432068359846,-5.5609049837617279]],[[105.25432068359846,-5.5609049837617279],[105.25431858121823,-5.5609561654090918]],[[105.25431858121823,-5.5609561654090918],[105.25431006082317,-5.5610005847358961]],[[105.25431006082317,-5.5610005847358961],[105.25428889211814,-5.5610519153158533]],[[105.25428889211814,-5.5610519153158533],[105.25428033162783,-5.5610918376502658]],[[105.25428033162783,-5.5610918376502658],[105.25424564495374,-5.5611235861857908]],[[105.25424564495374,-5.5611235861857908],[105.25421383254015,-5.5611227391276365]],[[105.25421383254015,-5.5611227391276365],[105.25418938054156,-5.5611115072599961]],[[105.25418938054156,-5.5611115072599961],[105.2541446517186,-5.5610712755902005]],[[105.2541446517186,-5.5610712755902005],[105.25407605293522,-5.5610025174173217]],[[105.25407605293522,-5.5610025174173217],[105.25401145756041,-5.5609515856643883]],[[105.25401145756041,-5.5609515856643883],[105.25398282083107,-5.5609338496278387]],[[105.25398282083107,-5.5609338496278387],[105.25395035687771,-5.5609139542788446]],[[105.25395035687771,-5.5609139542788446],[105.25392147305978,-5.5608978822725215]],[[105.25392147305978,-5.5608978822725215],[105.25387484346055,-5.5608689316791331]],[[105.25387484346055,-5.5608689316791331],[105.25377198395272,-5.560810798619217]],[[105.25377198395272,-5.560810798619217],[105.25357614505492,-5.5607001059595467]],[[105.25357614505492,-5.5607001059595467],[105.25354215327847,-5.5606877358795845]],[[105.25354215327847,-5.5606877358795845],[105.25351735086031,-5.5606757929587962]],[[105.25351735086031,-5.5606757929587962],[105.25315625173688,-5.5605330595009317]],[[105.25315625173688,-5.5605330595009317],[105.2531135052316,-5.5605741311049579]],[[105.2531135052316,-5.5605741311049579],[105.2530982581339,-5.5605834474629017]],[[105.2530982581339,-5.5605834474629017],[105.2530557874156,-5.5605940557064137]],[[105.2530557874156,-5.5605940557064137],[105.25302220250789,-5.5606264737951276]],[[105.25302220250789,-5.5606264737951276],[105.25297001695074,-5.560672215895794]],[[105.25297001695074,-5.560672215895794],[105.25287892590728,-5.5607793099244924]],[[105.25287892590728,-5.5607793099244924],[105.25284965698243,-5.5608309440864288]],[[105.25284965698243,-5.5608309440864288],[105.25281411010592,-5.5608783303256821]],[[105.25281411010592,-5.5608783303256821],[105.25276362575013,-5.560952312307708]],[[105.25276362575013,-5.560952312307708],[105.25274843475134,-5.5609959637231645]],[[105.25274843475134,-5.5609959637231645],[105.25272382777348,-5.5610702616000722]],[[105.25272382777348,-5.5610702616000722],[105.2527242053759,-5.5611097354354051]],[[105.2527242053759,-5.5611097354354051],[105.25273189323991,-5.5611564310582313]],[[105.25273189323991,-5.5611564310582313],[105.25274114284078,-5.561186132438344]]]},"properties":{"FID":7,"LEFT_FID":0,"RIGHT_FID":0,"Part_ID":1,"begin":1,"end":1}},{"type":"Feature","id":8,"geometry":{"type":"MultiLineString","coordinates":[[[105.25255243931063,-5.5576603635297275],[105.2525657006843,-5.5577074066320611]],[[105.2525657006843,-5.5577074066320611],[105.25257333797562,-5.5577481119466698]],[[105.25257333797562,-5.5577481119466698],[105.25259698562164,-5.5577998892391607]],[[105.25259698562164,-5.5577998892391607],[105.25259770911771,-5.5578173960068735]],[[105.25259770911771,-5.5578173960068735],[105.2526567890976,-5.5578558867812449]],[[105.2526567890976,-5.5578558867812449],[105.2527111400146,-5.5578931869382435]],[[105.2527111400146,-5.5578931869382435],[105.25276618884746,-5.5579370239331283]],[[105.25276618884746,-5.5579370239331283],[105.25281404538039,-5.5579753959196161]],[[105.25281404538039,-5.5579753959196161],[105.2528783724661,-5.5580228353281624]],[[105.2528783724661,-5.5580228353281624],[105.2529219415633,-5.5580622310488534]],[[105.2529219415633,-5.5580622310488534],[105.25299430847585,-5.5581134474652751]],[[105.25299430847585,-5.5581134474652751],[105.25306972673472,-5.558175013303944]],[[105.25306972673472,-5.558175013303944],[105.2531296267872,-5.5582258928099488]],[[105.2531296267872,-5.5582258928099488],[105.25318700366529,-5.5582781196278246]],[[105.25318700366529,-5.5582781196278246],[105.25322720406291,-5.5583402971848486]],[[105.25322720406291,-5.5583402971848486],[105.25327052800422,-5.5584138140953714]],[[105.25327052800422,-5.5584138140953714],[105.25331202083166,-5.5584908438244724]],[[105.25331202083166,-5.5584908438244724],[105.25333907438184,-5.5585231517909399]],[[105.25333907438184,-5.5585231517909399],[105.25338504110464,-5.5585427334208601]],[[105.25338504110464,-5.5585427334208601],[105.25341923004909,-5.5584881985416379]],[[105.25341923004909,-5.5584881985416379],[105.25345795678375,-5.5584902051655369]],[[105.25345795678375,-5.5584902051655369],[105.25344798252725,-5.558526865013782]],[[105.25344798252725,-5.558526865013782],[105.25342060953331,-5.5585597148769992]],[[105.25342060953331,-5.5585597148769992],[105.25339037541453,-5.5586008703388687]],[[105.25339037541453,-5.5586008703388687],[105.25342084684206,-5.5586644675445642]],[[105.25342084684206,-5.5586644675445642],[105.25342550545329,-5.5587104989412603]],[[105.25342550545329,-5.5587104989412603],[105.25342501544094,-5.5587858568644606]],[[105.25342501544094,-5.5587858568644606],[105.25342668821391,-5.5588675482525405]],[[105.25342668821391,-5.5588675482525405],[105.25342519946662,-5.558937988817501]],[[105.25342519946662,-5.558937988817501],[105.25342534004561,-5.5589890797429709]],[[105.25342534004561,-5.5589890797429709],[105.2533954594109,-5.5589946032032298]],[[105.2533954594109,-5.5589946032032298],[105.25340295365426,-5.5591251443534606]],[[105.25340295365426,-5.5591251443534606],[105.25341257607087,-5.5592247583726726]],[[105.25341257607087,-5.5592247583726726],[105.25341463259629,-5.5593293790957947]],[[105.25341463259629,-5.5593293790957947],[105.25341355870486,-5.5594285956085372]],[[105.25341355870486,-5.5594285956085372],[105.25342206976856,-5.5595172524535803]],[[105.25342206976856,-5.5595172524535803],[105.2534387763139,-5.5596526042737899]],[[105.2534387763139,-5.5596526042737899],[105.25344841672378,-5.5597161417447811]],[[105.25344841672378,-5.5597161417447811],[105.2534638431368,-5.5598012397717129]],[[105.2534638431368,-5.5598012397717129],[105.25348496365683,-5.5598938353461467]],[[105.25348496365683,-5.5598938353461467],[105.25351155399008,-5.5599636043776934]],[[105.25351155399008,-5.5599636043776934],[105.2535466456828,-5.5600260532437513]],[[105.2535466456828,-5.5600260532437513],[105.25359111180988,-5.560108736658731]],[[105.25359111180988,-5.560108736658731],[105.25363250061662,-5.5601915151252816]],[[105.25363250061662,-5.5601915151252816],[105.25365031588201,-5.5602882318897926]],[[105.25365031588201,-5.5602882318897926],[105.25363020068167,-5.5603607210584336]],[[105.25363020068167,-5.5603607210584336],[105.2536622280065,-5.5603965430848765]],[[105.2536622280065,-5.5603965430848765],[105.25369305642181,-5.5604334238158444]],[[105.25369305642181,-5.5604334238158444],[105.25372689062606,-5.5604719964668625]],[[105.25372689062606,-5.5604719964668625],[105.2537728933962,-5.5605254430787303]],[[105.2537728933962,-5.5605254430787303],[105.25381288844241,-5.5605726333666219]],[[105.25381288844241,-5.5605726333666219],[105.25382747101384,-5.5605876537157304]],[[105.25382747101384,-5.5605876537157304],[105.25385394964756,-5.5606166445260286]],[[105.25385394964756,-5.5606166445260286],[105.25387965942956,-5.5606459275290643]],[[105.25387965942956,-5.5606459275290643],[105.25391616409577,-5.5606802411475247]],[[105.25391616409577,-5.5606802411475247],[105.25394110600885,-5.5607082116287243]],[[105.25394110600885,-5.5607082116287243],[105.25398133790304,-5.5607325586872571]],[[105.25398133790304,-5.5607325586872571],[105.25402112047965,-5.5607562915609225]],[[105.25402112047965,-5.5607562915609225],[105.25405890354664,-5.5607614903112133]],[[105.25405890354664,-5.5607614903112133],[105.25409494993744,-5.5607659784395729]],[[105.25409494993744,-5.5607659784395729],[105.25412860526151,-5.5607723563643461]],[[105.25412860526151,-5.5607723563643461],[105.25415611574797,-5.5607767504547381]],[[105.25415611574797,-5.5607767504547381],[105.25421376982457,-5.5607885337756269]],[[105.25421376982457,-5.5607885337756269],[105.25425923761766,-5.560806435294908]],[[105.25425923761766,-5.560806435294908],[105.2543034526133,-5.5608367354226278]],[[105.2543034526133,-5.5608367354226278],[105.25432068359846,-5.5609049837617279]],[[105.25432068359846,-5.5609049837617279],[105.25431858121823,-5.5609561654090918]],[[105.25431858121823,-5.5609561654090918],[105.25431006082317,-5.5610005847358961]],[[105.25431006082317,-5.5610005847358961],[105.25428889211814,-5.5610519153158533]],[[105.25428889211814,-5.5610519153158533],[105.25428033162783,-5.5610918376502658]],[[105.25428033162783,-5.5610918376502658],[105.25424564495374,-5.5611235861857908]],[[105.25424564495374,-5.5611235861857908],[105.25421383254015,-5.5611227391276365]],[[105.25421383254015,-5.5611227391276365],[105.25418938054156,-5.5611115072599961]],[[105.25418938054156,-5.5611115072599961],[105.2541446517186,-5.5610712755902005]],[[105.2541446517186,-5.5610712755902005],[105.25407605293522,-5.5610025174173217]],[[105.25407605293522,-5.5610025174173217],[105.25401145756041,-5.5609515856643883]],[[105.25401145756041,-5.5609515856643883],[105.25398282083107,-5.5609338496278387]],[[105.25398282083107,-5.5609338496278387],[105.25395035687771,-5.5609139542788446]],[[105.25395035687771,-5.5609139542788446],[105.25392147305978,-5.5608978822725215]],[[105.25392147305978,-5.5608978822725215],[105.25387484346055,-5.5608689316791331]],[[105.25387484346055,-5.5608689316791331],[105.25377198395272,-5.560810798619217]],[[105.25377198395272,-5.560810798619217],[105.25357614505492,-5.5607001059595467]],[[105.25357614505492,-5.5607001059595467],[105.25354215327847,-5.5606877358795845]],[[105.25354215327847,-5.5606877358795845],[105.25351735086031,-5.5606757929587962]],[[105.25351735086031,-5.5606757929587962],[105.25315625173688,-5.5605330595009317]],[[105.25315625173688,-5.5605330595009317],[105.2531135052316,-5.5605741311049579]],[[105.2531135052316,-5.5605741311049579],[105.2530982581339,-5.5605834474629017]],[[105.2530982581339,-5.5605834474629017],[105.2530557874156,-5.5605940557064137]],[[105.2530557874156,-5.5605940557064137],[105.25302220250789,-5.5606264737951276]],[[105.25302220250789,-5.5606264737951276],[105.25297001695074,-5.560672215895794]],[[105.25297001695074,-5.560672215895794],[105.25287892590728,-5.5607793099244924]],[[105.25287892590728,-5.5607793099244924],[105.25284965698243,-5.5608309440864288]],[[105.25284965698243,-5.5608309440864288],[105.25281411010592,-5.5608783303256821]],[[105.25281411010592,-5.5608783303256821],[105.25276362575013,-5.560952312307708]],[[105.25276362575013,-5.560952312307708],[105.25274843475134,-5.5609959637231645]],[[105.25274843475134,-5.5609959637231645],[105.25272382777348,-5.5610702616000722]],[[105.25272382777348,-5.5610702616000722],[105.2527242053759,-5.5611097354354051]],[[105.2527242053759,-5.5611097354354051],[105.25273189323991,-5.5611564310582313]],[[105.25273189323991,-5.5611564310582313],[105.25274114284078,-5.561186132438344]]]},"properties":{"FID":8,"LEFT_FID":0,"RIGHT_FID":0,"Part_ID":1,"begin":1,"end":1}},{"type":"Feature","id":9,"geometry":{"type":"LineString","coordinates":[[105.25382033879544,-5.5528462840065398],[105.25382612361415,-5.5527893845902492],[105.25394113693122,-5.5527145206955764],[105.253946293523,-5.5526730428850088],[105.25395242073677,-5.5526605591703309],[105.25392731525669,-5.5526598018913642],[105.2539365153808,-5.5526121673079958],[105.25391168213896,-5.5525621072832765],[105.25389090719803,-5.5525283672601899],[105.25388120051784,-5.5525219570631315],[105.25384425560345,-5.5524619583239128],[105.2538240427501,-5.5524297312036719],[105.2538152756442,-5.5524022913696829],[105.2538063037326,-5.5523770641406953],[105.25380489479416,-5.5523570074329145],[105.25380095722521,-5.5522858853834283],[105.25380467220121,-5.5522404568079669],[105.25381900986287,-5.5522093238286736],[105.25384037395102,-5.5521619412796683],[105.25383715687475,-5.5521067849113512],[105.2537807261775,-5.5520748680831469],[105.25373795071658,-5.5520560909507877]]},"properties":{"FID":9,"LEFT_FID":0,"RIGHT_FID":0,"Part_ID":1,"begin":1,"end":1}}]}